{"version": 0.6, "generator": "Overpass API 0.7.55.1009 5e627b63", "osm3s": {"timestamp_osm_base": "2020-01-06T20:49:02Z", "timestamp_areas_base": "2020-01-06T14:23:02Z", "copyright": "The data included in this document is from www.openstreetmap.org. The data is made available under ODbL."}, "elements": [{"type": "node", "id": 27610731, "lat": 41.224459, "lon": 29.1654468, "tags": {"alt_name": "Yomburnu", "name": "Yom Burnu", "natural": "cape", "source": "PGS"}}, {"type": "node", "id": 27611391, "lat": 41.2338127, "lon": 29.116173, "tags": {"name": "Rumeli Burnu", "natural": "cape", "source": "PGS"}}, {"type": "node", "id": 269497288, "lat": 41.0419227, "lon": 29.0068359, "tags": {"historic": "memorial", "name": "Barbaros Hayrettin T\u00fcrbesi", "religion": "muslim"}}, {"type": "node", "id": 415156590, "lat": 41.0053979, "lon": 28.9748184, "tags": {"historic": "monument", "man_made": "obelisk", "name": "\u00d6rme Dikilita\u015f", "name:ar": "\u0623\u0648\u0645\u0631\u064a \u062f\u064a\u0643\u064a\u0644\u064a\u062a\u0627\u0634\u0650", "name:de": "Obelisk", "name:en": "The Walled Obelisk", "name:es": "Obelisco de Constantino", "name:fr": "Ob\u00e9lisque \u00ab mur\u00e9 \u00bb", "name:ru": "\u041e\u0431\u0435\u043b\u0438\u0441\u043a \u041a\u043e\u043d\u0441\u0442\u0430\u043d\u0442\u0438\u043d\u0430", "name:tr": "\u00d6rme Dikilita\u015f", "wikidata": "Q742474", "wikipedia": "tr:\u00d6rme Dikilita\u015f"}}, {"type": "node", "id": 415157636, "lat": 41.0056628, "lon": 28.975103, "tags": {"historic": "monument", "name": "Y\u0131lanl\u0131 S\u00fctun", "name:ar": "\u064a\u0644\u0627\u0646\u0644\u0650 \u0633\u0648\u062a\u0648\u0646", "name:de": "Schlangens\u00e4ule", "name:en": "Serpent Column", "name:es": "Columna de las Serpientes", "name:fr": "Colonne serpentine", "name:ru": "\u0417\u043c\u0435\u0438\u043d\u0430\u044f \u043a\u043e\u043b\u043e\u043d\u043d\u0430", "name:tr": "Y\u0131lanl\u0131 S\u00fctun", "name:zh": "\u87ba\u65cb\u5706\u67f1", "wikidata": "Q588892", "wikipedia": "tr:Y\u0131lanl\u0131 S\u00fctun"}}, {"type": "node", "id": 415157637, "lat": 41.0059073, "lon": 28.9753797, "tags": {"height": "15.9", "historic": "monument", "man_made": "obelisk", "name": "Theodosius Dikilita\u015f\u0131", "name:ar": "\u062b\u064a\u0648\u062f\u0648\u0633\u064a\u0627\u064a \u062f\u064a\u0643\u064a\u0644\u064a\u062a\u0627\u0634\u0650", "name:de": "\u00c4gyptischer Obelisk", "name:en": "Obelisk of Theodosius", "name:es": "Obelisco de Teodosio", "name:fr": "Ob\u00e9lisque de Th\u00e9odose", "name:it": "Obelisco di Teodosio", "name:ru": "\u0415\u0433\u0438\u043f\u0435\u0442\u0441\u043a\u0438\u0439 \u043e\u0431\u0435\u043b\u0438\u0441\u043a", "name:tr": "Theodosius Dikilita\u015f\u0131", "name:zh": "\u72c4\u5965\u591a\u897f\u65b9\u5c16\u7891", "note:start_date": "The obelisk was erected in 390 here. The obelisk itself is much older", "start_date": "390", "wikidata": "Q763854", "wikipedia": "tr:Dikilita\u015f (Sultanahmet)"}}, {"type": "node", "id": 554083364, "lat": 41.1060207, "lon": 29.0555191, "tags": {"charge": "20 TRY", "fee": "yes", "name": "Sabanc\u0131 \u00dcniversitesi Sak\u0131p Sabanc\u0131 M\u00fczesi", "name:en": "Sak\u0131p Sabanc\u0131 Museum", "name:tr": "Sabanc\u0131 \u00dcniversitesi Sak\u0131p Sabanc\u0131 M\u00fczesi", "note": "Sak\u0131p Sabanc\u0131 Museum Collection of the Arts of the Book and Calligraphy have illuminated Korans, calligraphy, official documents from the Ottoman sultans, etc. Exhibits are from the end of the 14th century to the 20th century.", "opening_hours": "Tu, Th, Fr, Su 10:00-18:00;We, Sa 10:00-22:00", "phone": "+90 212 277 22 00", "toilets:wheelchair": "yes", "tourism": "museum", "website": "https://www.sakipsabancimuzesi.org/en/", "wheelchair": "yes", "wikidata": "Q3395851", "wikipedia": "en:Sak\u0131p Sabanc\u0131 Museum"}}, {"type": "node", "id": 654205150, "lat": 41.0319036, "lon": 28.975196, "tags": {"addr:city": "Tepeba\u015f\u0131- Beyo\u011flu - Istanbul", "addr:full": "Me\u015frutiyet Caddesi No.65Taksim Istanbul", "addr:housenumber": "141", "addr:postcode": "34443", "addr:street": "Me\u015frutiyet Caddesi", "name": "Pera M\u00fczesi", "name:ar": "\u0645\u062a\u062d\u0641 \u0628\u064a\u0631\u0627", "name:en": "Pera Museum", "name:ru": "\u041c\u0443\u0437\u0435\u0439 \u043f\u0435\u0440\u0430", "name:tr": "Pera M\u00fczesi", "note": "https://www.geziyerler.com/pera-muzesi", "opening_hours": "Tu-Su 10:00-19:00, Su 12:00-18:00", "phone": "212 334 9900", "tourism": "museum", "website": "https://www.peramuzesi.org.tr/", "wheelchair": "no", "wheelchair:description": "Tekerlekli sandalye i\u00e7in %100 uygundur. Engelli tuvaleti vard\u0131r."}}, {"type": "node", "id": 663391254, "lat": 41.0084474, "lon": 28.9727278, "tags": {"historic": "tomb", "name": "Sultan II. Mahmud T\u00fcrbesi", "name:ar": "\u0642\u0628\u0631 \u0627\u0644\u0633\u0644\u0637\u0627\u0646 \u0645\u062d\u0645\u0648\u062f \u0627\u0644\u062b\u0627\u0646\u064a", "name:en": "Tomb of Sultan II. Mahmud"}}, {"type": "node", "id": 796545922, "lat": 40.9848918, "lon": 28.8446018, "tags": {"name": "\u0130spirtohane", "tourism": "museum"}}, {"type": "node", "id": 1026149721, "lat": 41.0005858, "lon": 28.8514348, "tags": {"amenity": "castel", "name": "Siyavu\u015fpa\u015fa Kasr\u0131", "name:ar": "\u0642\u0644\u0639\u0629 \u0633\u064a\u0647\u0627\u0641\u0648\u0634 \u0628\u0627\u0634\u0627", "ref": "castel", "tourism": "museum"}}, {"type": "node", "id": 1035582478, "lat": 40.9998322, "lon": 28.9207028, "tags": {"barrier": "sally_port", "historic": "city_gate", "name": "Belgrad Kap\u0131", "name:en": "Belgrade Gate", "name:it": "Porta di Belgrado", "wikidata": "Q3908912"}}, {"type": "node", "id": 1037084486, "lat": 40.9641579, "lon": 28.8262655, "tags": {"addr:city": "\u0130stanbul", "addr:district": "Bak\u0131rk\u00f6y", "addr:street": "Eski Havaalan\u0131 Caddesi", "email": "havacilikmuzesi@hho.edu.tr", "name": "Havac\u0131l\u0131k M\u00fczesi", "name:en": "Turkish Air Force Museum", "name:ru": "\u041c\u0443\u0437\u0435\u0439 \u0430\u0432\u0438\u0430\u0446\u0438\u0438 \u0432 \u0421\u0442\u0430\u043c\u0431\u0443\u043b\u0435", "opening_hours": "Tu-Fr 09:00-16:30; Sa-Su 10:00-17:30", "phone": "+90 212 663 24 90", "tourism": "museum", "website": "http://www.hho.edu.tr/muze/muze.htm", "wikidata": "Q3394116"}}, {"type": "node", "id": 1346157990, "lat": 41.0488755, "lon": 28.9882427, "tags": {"name": "Askeri M\u00fcze", "name:en": "Military Museum", "name:ru": "\u0412\u043e\u0435\u043d\u043d\u044b\u0439 \u043c\u0443\u0437\u0435\u0439 \u0432 \u0421\u0442\u0430\u043c\u0431\u0443\u043b\u0435", "name:tr": "Askeri M\u00fcze", "opening_hours": "We-Su 9:00-17:00", "phone": "+90 212 233 27 20", "tourism": "museum", "website": "http://www.askerimuze.tsk.tr/INGILIZCE/military_museum.htm", "wikidata": "Q12808583"}}, {"type": "node", "id": 1352425761, "lat": 41.059005, "lon": 28.9490675, "tags": {"addr:city": "S\u00fctl\u00fcce \\ Istanbul", "addr:postcode": "34445", "addr:street": "\u0130mrahor Caddesi", "email": "info@miniaturk.com.tr", "name": "Miniat\u00fcrk A\u00e7\u0131khava M\u00fczesi", "name:en": "Miniature Park", "name:ru": "\u041c\u0438\u043d\u0438\u0430\u0442\u044e\u0440\u043a \u043f\u0430\u0440\u043a \u043c\u0438\u043d\u0438\u0430\u0442\u044e\u0440 \u0422\u0443\u0440\u0446\u0438\u0438", "name:tr": "Miniat\u00fcrk M\u00fczesi", "opening_hours": "Mo-Su 09:00-19:00", "phone": "+90 0212 222 28 82", "tourism": "museum", "website": "https://www.miniaturk.com.tr/", "wheelchair": "yes", "wheelchair:description": "Ana giri\u015fte 16 derecelik bir adet rampa vard\u0131r. Engelli tuvaleti bulunmaktad\u0131r.", "wikidata": "Q1085952"}}, {"type": "node", "id": 1426032250, "lat": 41.0435591, "lon": 29.0042148, "tags": {"historic": "monument", "name": "BJK 100 Y\u0131l Kartal Heykeli"}}, {"type": "node", "id": 1483978540, "lat": 41.0714771, "lon": 29.0390825, "tags": {"name": "Bo\u011faz Manzaras\u0131", "name:en": "Bosphorus View", "tourism": "viewpoint"}}, {"type": "node", "id": 1591335375, "lat": 41.0071385, "lon": 28.9439459, "tags": {"historic": "monument", "name": "Bulgur Palas", "name:ar": "\u0628\u0648\u0644\u0643\u0648\u0631 \u0628\u0627\u0644\u0627\u0633"}}, {"type": "node", "id": 1620494633, "lat": 41.0162025, "lon": 28.9719047, "tags": {"historic": "monument", "name": "Hatice Turhan Sultan T\u00fcrbesi", "name:ar": "\u0628\u062f\u0627\u064a\u0629 \u0627\u0644\u0633\u0648\u0642 \u0627\u0644\u0645\u0633\u0642\u0648\u0641", "name:en": "Tomb of Hatice Turhan Sultan"}}, {"type": "node", "id": 1651516149, "lat": 41.0275772, "lon": 28.9744261, "tags": {"addr:housenumber": "15", "addr:postcode": "34420", "addr:street": "\u015eahkulu", "alt_name": "Galata Convent of Whirling Dervishes", "email": "contact@muze.gen.tr/", "name": "Galata Mevlevihanesi M\u00fczesi", "name:en": "Galata Mevlevi House Museum", "name:tr": "Galata Mevlevihanesi M\u00fczesi", "name:zh": "\u52a0\u62c9\u5854\u6885\u592b\u62c9\u7ef4\u535a\u7269\u9986", "phone": "+90 0 212 245 41 41", "tourism": "museum", "website": "https://muze.gen.tr/", "wheelchair": "limited"}}, {"type": "node", "id": 1652694014, "lat": 41.0054477, "lon": 28.9796589, "tags": {"historic": "ruins", "name": "Magnaura Saray\u0131", "name:ar": "\u0645\u0627\u0643\u0646\u0648\u0631\u0627 \u0633\u0627\u0631\u0627\u064a"}}, {"type": "node", "id": 1697574719, "lat": 41.0832981, "lon": 29.0483937, "tags": {"name": "Petek", "tourism": "viewpoint"}}, {"type": "node", "id": 1768294290, "lat": 41.0042694, "lon": 28.977449, "tags": {"name": "B\u00fcy\u00fck Saray Mozaikleri M\u00fczesi", "name:ar": "\u0645\u062a\u062d\u0641 \u0628\u064a\u0648\u0643 \u0633\u0627\u0631\u0627\u064a \u0645\u064a\u0648\u0632\u0627\u064a\u064a\u0643", "name:de": "Gro\u00dfer Palast (Mosaikenmuseum)", "name:en": "Great Palace Mosaic Museum", "name:fr": "Mus\u00e9e de la mosa\u00efque du grand palais", "name:ru": "\u041c\u0443\u0437\u0435\u0439 \u043c\u043e\u0437\u0430\u0438\u043a", "name:zh": "\u5927\u7687\u5bab\u9576\u5d4c\u753b\u535a\u7269\u9986", "opening_hours": "Mo-Su 09:00-16:30", "tourism": "museum", "website": "https://muze.gen.tr/", "wikidata": "Q2719230", "wikipedia": "tr:B\u00fcy\u00fck Saray Mozaikleri M\u00fczesi"}}, {"type": "node", "id": 1770612643, "lat": 41.0238356, "lon": 28.9736169, "tags": {"addr:city": "\u0130stanbul", "addr:district": "Karak\u00f6y", "addr:housenumber": "11", "addr:postcode": "34420", "addr:street": "Bankalar Caddesi", "name": "Osmanl\u0131 Bankas\u0131 M\u00fczesi", "name:en": "Ottoman Bank Museum", "phone": "+90 212 334 22 00", "tourism": "museum", "website": "http://www.obmuze.com/"}}, {"type": "node", "id": 1807703751, "lat": 41.0046397, "lon": 28.967754, "tags": {"name": "Istanbul Photography Museum", "name:ar": "\u0645\u062a\u062d\u0641 \u0627\u0633\u0637\u0646\u0628\u0648\u0644 \u0641\u0648\u062a\u0648\u063a\u0631\u0627\u0641\u064a", "name:tr": "\u0130stanbul Foto\u011fraf M\u00fczesi", "opening_hours": "Tu-Su 10:00-18:00", "tourism": "museum"}}, {"type": "node", "id": 1883670644, "lat": 41.097363, "lon": 28.310924, "tags": {"name": "Mand\u0131ra Tepesi", "natural": "peak", "source": "HGK"}}, {"type": "node", "id": 1900616737, "lat": 41.00408, "lon": 28.9733493, "tags": {"historic": "archaeological_site", "name": "ancient Substructures Hippodrom", "name:ar": "\u062a\u0646\u0642\u064a\u0628\u0627\u062a \u0647\u064a\u0628\u064a\u062f\u0631\u0648\u0645 \u0627\u0644\u0642\u062f\u064a\u0645\u0629", "name:zh": "1-11\u8dd1\u9a6c\u573a", "source": "survey"}}, {"type": "node", "id": 1908677124, "lat": 41.008066, "lon": 28.9779826, "tags": {"historic": "monument", "name": "Milyon Ta\u015f\u0131", "name:ar": "\u0645\u0644\u064a\u0648\u0646 \u062a\u0627\u0634\u064a - \u0645\u0644\u064a\u0648\u0646 \u062d\u062c\u0631", "name:de": "Milion", "name:en": "Milion", "name:ru": "\u041c\u0438\u043b\u0438\u0430\u0440\u0438\u0443\u043c \u0431\u0430\u0437\u0438\u043b\u0438\u043a\u0430", "name:tr": "Milyon Ta\u015f\u0131", "wikidata": "Q1187329", "wikipedia": "en:Milion", "wikipedia:ru": "\u041c\u0438\u043b\u0438\u0439"}}, {"type": "node", "id": 1981631548, "lat": 41.3326289, "lon": 28.2067179, "tags": {"ele": "242", "name": "G\u00fcrgen Tepe", "natural": "peak", "source": "HGK"}}, {"type": "node", "id": 2016270332, "lat": 41.103207, "lon": 29.49679, "tags": {"name": "G\u00fcrgencik Tepesi", "natural": "peak"}}, {"type": "node", "id": 2201659666, "lat": 41.1629996, "lon": 29.0481987, "tags": {"fee": "yes", "name": "Sadberk Han\u0131m M\u00fczesi", "name:en": "Sadberk Han\u0131m Museum", "name:tr": "Sadberk Han\u0131m M\u00fczesi", "opening_hours": "Th-Tu 10:00-17:00", "operator": "Vehbi Ko\u00e7 Vakf\u0131", "phone": "+90 212 242 38 13", "price": "7TL", "tourism": "museum", "website": "http://www.sadberkhanimmuzesi.org.tr/", "wikidata": "Q3300324"}}, {"type": "node", "id": 2201713283, "lat": 41.2140768, "lon": 29.1106021, "tags": {"historic": "castle", "name": "Garip\u00e7e Kalesi", "tourism": "viewpoint"}}, {"type": "node", "id": 2201717708, "lat": 41.23394, "lon": 29.1157573, "tags": {"historic": "ruins", "name": "Pompeus S\u00fctunu / Roke Kayal\u0131klar\u0131"}}, {"type": "node", "id": 2201720559, "lat": 41.1820279, "lon": 29.0746658, "tags": {"historic": "castle", "name": "Rumeli Kava\u011f\u0131 Tabyalar\u0131"}}, {"type": "node", "id": 2246566959, "lat": 41.0850301, "lon": 29.0064133, "tags": {"email": "bilgi@istanbulsapphire.co", "name": "Istanbul Sapphire", "name:ru": "\u041e\u0431\u0437\u043e\u0440\u043d\u0430\u044f \u043f\u043b\u043e\u0449\u0430\u0434\u043a\u0430 \u043d\u0435\u0431\u043e\u0441\u043a\u0440\u0435\u0431 \u0421\u0430\u043f\u0444\u0438\u0440", "phone": "90212268 80 80", "price": "TRY 18", "tourism": "viewpoint"}}, {"type": "node", "id": 2277316363, "lat": 41.0050783, "lon": 28.6790227, "tags": {"historic": "monument", "name": "Haramidere K\u00f6pr\u00fcs\u00fc"}}, {"type": "node", "id": 2278292048, "lat": 41.0123579, "lon": 28.6204799, "tags": {"name": "Best Point for Sea&Lake Sunset View", "tourism": "viewpoint"}}, {"type": "node", "id": 2278535412, "lat": 41.0010689, "lon": 28.6905849, "tags": {"historic": "ruins", "name": "Ancient Roman Ruins"}}, {"type": "node", "id": 2282062752, "lat": 41.0219982, "lon": 28.5757305, "tags": {"historic": "monument", "name": "B\u00fcy\u00fck\u00e7ekmece Kervansaray (Kur\u015funlu Han)"}}, {"type": "node", "id": 2282062787, "lat": 41.0223139, "lon": 28.5741537, "tags": {"historic": "monument", "name": "B\u00fcy\u00fck\u00e7ekmece Kanuni Sultan S\u00fcleyman K\u00f6pr\u00fcs\u00fc"}}, {"type": "node", "id": 2282196088, "lat": 40.9855627, "lon": 28.7372012, "tags": {"name": "Pa\u015faeli Picnic Site", "tourism": "picnic_site"}}, {"type": "node", "id": 2329194003, "lat": 41.0369635, "lon": 28.9851445, "tags": {"height": "20", "historic": "memorial", "name": "Cumhuriyet An\u0131t\u0131", "name:ar": "\u0645\u064a\u062f\u0627\u0646 \u062a\u0642\u0633\u064a\u0645", "name:de": "Denkmal der Republik", "name:en": "Taksim Square", "name:fa": "\u0645\u06cc\u062f\u0627\u0646 \u062a\u0642\u0633\u06cc\u0645", "name:ru": "\u041f\u0430\u043c\u044f\u0442\u043d\u0438\u043a \u00ab\u0420\u0435\u0441\u043f\u0443\u0431\u043b\u0438\u043a\u0430\u00bb", "name:tr": "istanbul", "wheelchair": "no"}}, {"type": "node", "id": 2435483545, "lat": 40.8714084, "lon": 29.0754497, "tags": {"name": "Alman Koyu", "natural": "bay"}}, {"type": "node", "id": 2435483833, "lat": 40.8701495, "lon": 29.0852285, "tags": {"name": "\u00c7am Liman\u0131 Koyu", "natural": "bay"}}, {"type": "node", "id": 2436912685, "lat": 40.9765989, "lon": 29.0411302, "tags": {"historic": "memorial", "name": "Sadun Boro Heykeli"}}, {"type": "node", "id": 2437539073, "lat": 40.9871731, "lon": 29.0340021, "tags": {"historic": "memorial", "memorial": "statue", "name": "Lefter K\u00fc\u00e7\u00fckandonyadis Heykeli", "name:en": "Lefter K\u00fc\u00e7\u00fckandonyadis Statue"}}, {"type": "node", "id": 2437773517, "lat": 40.9852779, "lon": 29.0336422, "tags": {"historic": "memorial", "memorial": "statue", "name": "Yunus Emre Heykeli", "name:en": "Yunus Emre Monument"}}, {"type": "node", "id": 2446138465, "lat": 40.980354, "lon": 29.0239767, "tags": {"historic": "memorial", "material": "metal", "memorial": "bust", "name": "Atat\u00fcrk An\u0131t\u0131", "name:en": "Atat\u00fcrk Statue", "start_date": "1995"}}, {"type": "node", "id": 2446513068, "lat": 40.9874493, "lon": 29.0286291, "tags": {"historic": "ruins", "name": "Osmanl\u0131 Hamam Kal\u0131nt\u0131s\u0131"}}, {"type": "node", "id": 2450994883, "lat": 40.9812226, "lon": 29.0209277, "tags": {"historic": "memorial", "name": "Atat\u00fcrk An\u0131t\u0131", "name:en": "Atat\u00fcrk Monument"}}, {"type": "node", "id": 2451239991, "lat": 40.9759566, "lon": 29.0706193, "tags": {"name": "\u0130stanbul Oyuncak M\u00fczesi", "tourism": "museum", "url": "http://www.istanbuloyuncakmuzesi.com/", "wikidata": "Q2743371"}}, {"type": "node", "id": 2454858578, "lat": 40.9875075, "lon": 29.0338605, "tags": {"historic": "memorial", "memorial": "statue", "name": "Alex de Souza Heykeli", "name:en": "Alex de Souza Statue"}}, {"type": "node", "id": 2454972017, "lat": 40.9960576, "lon": 29.0157164, "tags": {"historic": "memorial", "name": "2. Abd\u00fclhamit An\u0131t\u0131"}}, {"type": "node", "id": 2454972018, "lat": 41.0017691, "lon": 29.0071158, "tags": {"historic": "memorial", "name": "2. Abd\u00fclhamit An\u0131t\u0131"}}, {"type": "node", "id": 2457038208, "lat": 40.9791344, "lon": 29.0396361, "tags": {"historic": "memorial", "name": "Faz\u0131l H\u00fcsn\u00fc Da\u011flarca Heykeli"}}, {"type": "node", "id": 2457038212, "lat": 40.9800644, "lon": 29.0387997, "tags": {"historic": "memorial", "name": "Osman Hamdi Bey Heykeli", "note": "Osman Hamdi Bey Heykeli, ya\u015fam\u0131.", "source": "http://www.youtube.com/watch?v=dQ_7DnfBuy4"}}, {"type": "node", "id": 2459760384, "lat": 40.9796099, "lon": 29.0392155, "tags": {"historic": "memorial", "name": "Asl\u0131 Nemutlu Heykeli"}}, {"type": "node", "id": 2472730735, "lat": 41.0074523, "lon": 28.9739702, "tags": {"name": "Binbirdirek Sarn\u0131c\u0131", "name:ar": "\u0645\u062a\u062d\u0641 \u0628\u0646\u0628\u064a\u0631\u062f\u064a\u0631\u064a\u0643 \u0633\u0627\u0631\u0646\u064a\u062c\u064a", "name:de": "Zisterne des Philoxenos", "name:el": "\u039a\u03b9\u03bd\u03c3\u03c4\u03ad\u03c1\u03bd\u03b1 \u03a6\u03b9\u03bb\u03bf\u03be\u03ad\u03bd\u03bf\u03c5", "name:en": "Cistern of Philoxenos", "name:it": "Cisterna di Filosseno", "name:ru": "\u0426\u0438\u0441\u0442\u0435\u0440\u043d\u0430 \u0424\u0438\u043b\u043e\u043a\u0441\u0435\u043d\u0430", "tourism": "museum", "wikidata": "Q2728644", "wikipedia": "en:Cistern of Philoxenos"}}, {"type": "node", "id": 2514747643, "lat": 41.0455872, "lon": 28.8961328, "tags": {"name": "Turkuazoo Akvaryum", "tourism": "aquarium", "website": "www.turkuazoo.com"}}, {"type": "node", "id": 2517082703, "lat": 40.9690231, "lon": 29.1144598, "tags": {"historic": "monument", "name": "\u0130\u00e7erenk\u00f6y Meydan\u0131 Bayrak Dire\u011fi", "name:tr": "i\u00e7erenk\u00f6y meydan\u0131 bayrak dire\u011fi"}}, {"type": "node", "id": 2517658756, "lat": 41.1910018, "lon": 28.962085, "tags": {"historic": "ruins", "name": "St. George's Church"}}, {"type": "node", "id": 2532890476, "lat": 40.9844079, "lon": 29.0391746, "tags": {"historic": "memorial", "name": "Vecihi H\u00fcrku\u015f Heykeli"}}, {"type": "node", "id": 2575834480, "lat": 41.1362853, "lon": 28.738157, "tags": {"historic": "monument", "name": "II. Mahmut Su Bendi", "note": "1839 y\u0131l\u0131nda in\u015faa edilmi\u015ftir."}}, {"type": "node", "id": 2575834483, "lat": 41.1261093, "lon": 28.7018667, "tags": {"historic": "monument", "name": "Filiboz Antik Bizans kasabas\u0131"}}, {"type": "node", "id": 2622394133, "lat": 40.9707185, "lon": 29.1636203, "tags": {"ele": "438", "name": "Kay\u0131\u015f Da\u011f\u0131", "natural": "peak", "wikipedia": "tr:Kay\u0131\u015f Da\u011f\u0131"}}, {"type": "node", "id": 2622398377, "lat": 40.9304584, "lon": 29.2569098, "tags": {"alt_name": "Aydos Tepesi", "ele": "537", "name": "Aydos Da\u011f\u0131", "natural": "peak", "wikidata": "Q4817974", "wikipedia": "tr:Aydos Tepesi"}}, {"type": "node", "id": 2622458156, "lat": 41.0664971, "lon": 29.2093575, "tags": {"alt_name": "Alemda\u011f", "ele": "442", "name": "Alem Da\u011f\u0131", "natural": "peak", "wikidata": "Q6035755", "wikipedia": "tr:Alemda\u011f"}}, {"type": "node", "id": 2656411219, "lat": 41.0013507, "lon": 29.040357, "tags": {"historic": "wayside_shrine", "name": "Kuru \u00c7e\u015fme"}}, {"type": "node", "id": 2706544572, "lat": 41.0081267, "lon": 28.9778968, "tags": {"historic": "monument", "name": "Yerebatan Sarn\u0131c\u0131", "name:ar": "\u0633\u0648 \u062a\u064a\u0631\u0627\u0632\u064a\u0633\u064a", "name:en": "Yerebatan Cistern", "name:es": "Bas\u00edlica cisterna", "name:ru": "\u0426\u0438\u0441\u0442\u0435\u0440\u043d\u0430 \u0411\u0430\u0437\u0438\u043b\u0438\u043a\u0430", "name:zh": "\u5730\u4e0b\u6c34\u5bae\u6bbf", "website": "https://www.geziyerler.com/yerebatan-sarnici"}}, {"type": "node", "id": 2832656982, "lat": 41.2464998, "lon": 29.0369322, "tags": {"historic": "monument", "name": "Atat\u00fcrk An\u0131t\u0131"}}, {"type": "node", "id": 2852238747, "lat": 40.9597384, "lon": 29.1908809, "tags": {"historic": "monument", "name": "Atat\u00fcrk Heykeli"}}, {"type": "node", "id": 2852239163, "lat": 40.959791, "lon": 29.1918835, "tags": {"historic": "monument", "name": "Seyit Onba\u015f\u0131 Heykeli"}}, {"type": "node", "id": 2892392880, "lat": 40.9904629, "lon": 29.0291571, "tags": {"historic": "memorial", "memorial": "statue", "name": "Bo\u011fa Heykeli", "name:en": "Bull Statue"}}, {"type": "node", "id": 3135406162, "lat": 41.0563817, "lon": 28.9872594, "tags": {"addr:housenumber": "250", "addr:street": "Halaskargazi Caddesi", "fee": "no", "name": "Atat\u00fcrk Museum, \u015ei\u015fli", "name:en": "Atat\u00fcrk Museum, \u015ei\u015fli", "name:tr": "Atat\u00fcrk M\u00fczesi", "note": "The museum houses personal belongings of Atat\u00fcrk like clothes and collections, other than historical documents, photographs and paintings of his lifetime.", "opening_hours": "Mo-We,Fr-Sa 09:00-16:00", "tourism": "museum", "wikidata": "Q3701681", "wikipedia": "en:Atat\u00fcrk Museum, \u015ei\u015fli"}}, {"type": "node", "id": 3195027800, "lat": 41.0362806, "lon": 28.9841655, "tags": {"email": "mailto:danisma.istanbul@ifturquie.org", "fee": "no", "name": "Institut fran\u00e7ais \u00e0 Istanbul", "name:en": "French Institute in Istanbul", "name:tr": "Frans\u0131z K\u00fclt\u00fcr Merkezi", "phone": "08507556800", "tourism": "museum", "website": "https://ifturquie.org/"}}, {"type": "node", "id": 3220979738, "lat": 41.0148075, "lon": 28.9710909, "tags": {"fixme": "check position", "historic": "memorial", "name": "Manifaturaci Draper", "name:tr": "Manifaturaci Draper"}}, {"type": "node", "id": 3236233297, "lat": 41.0154411, "lon": 28.9502846, "tags": {"historic": "memorial", "name": "K\u0131zta\u015f\u0131", "name:el": "\u03a3\u03c4\u03ae\u03bb\u03b7 \u03c4\u03bf\u03c5 \u039c\u03b1\u03c1\u03ba\u03b9\u03b1\u03bd\u03bf\u03cd", "name:en": "Column of Marcian", "name:ru": "\u041a\u043e\u043b\u043e\u043d\u043d\u0430 \u041c\u0430\u0440\u043a\u0438\u0430\u043d\u0430 Kiztasi Column of Marcian", "name:tr": "K\u0131zta\u015f\u0131", "wikidata": "Q285236", "wikipedia": "en:Column of Marcian", "wikipedia:ru": "\u041a\u043e\u043b\u043e\u043d\u043d\u0430 \u041c\u0430\u0440\u043a\u0438\u0430\u043d\u0430"}}, {"type": "node", "id": 3254365422, "lat": 41.0150588, "lon": 28.9768108, "tags": {"historic": "memorial", "name": "Atat\u00fcrk", "name:ru": "\u0410\u0442\u0430\u0442\u044e\u0440\u043a", "name:tr": "Atat\u00fcrk"}}, {"type": "node", "id": 3254396169, "lat": 41.0482849, "lon": 29.0188194, "tags": {"name": "Y\u0131ld\u0131z Seramik Fabrikas\u0131", "name:tr": "Y\u0131ld\u0131z Seramik Fabrikas\u0131", "tourism": "museum"}}, {"type": "node", "id": 3254460380, "lat": 41.0155962, "lon": 28.9542206, "tags": {"historic": "memorial", "name": "Fatih An\u0131t\u0131", "name:en": "Mehmed II the Conqueror", "name:ru": "\u041c\u0435\u0445\u043c\u0435\u0434 II \u0417\u0430\u0432\u043e\u0435\u0432\u0430\u0442\u0435\u043b\u044c", "name:tr": "Mehmed-i s\u00e2n\u00ee"}}, {"type": "node", "id": 3254460381, "lat": 41.0160748, "lon": 28.9526349, "tags": {"historic": "memorial", "name": "Hava \u015eehitleri An\u0131t\u0131", "name:en": "The Aviation Martyr\u2019s Monument", "name:ru": "\u041f\u0430\u043c\u044f\u0442\u043d\u0438\u043a \u043f\u043e\u0433\u0438\u0431\u0448\u0438\u043c \u0430\u0432\u0438\u0430\u0442\u043e\u0440\u0430\u043c Hava Sehitleri Aniti ( Tayyare Sehitleri Abidesi)", "name:tr": "Hava \u015eehitleri An\u0131t\u0131"}}, {"type": "node", "id": 3254468506, "lat": 41.0387821, "lon": 28.9771474, "tags": {"addr:housenumber": "10", "addr:street": "Tatl\u0131 Badem Sokak", "email": "contact@muze.gen.tr", "name": "Adam Mickiewicz M\u00fczesi", "name:en": "Adam Mickiewicz Museum", "name:ru": "\u043c\u0443\u0437\u0435\u0439 \u0410\u0434\u0430\u043c\u0430 \u041c\u0438\u0446\u043a\u0435\u0432\u0438\u0447\u0430", "name:tr": "Adam Mickiewicz M\u00fczesi", "tourism": "museum", "website": "https://muze.gen.tr", "wikidata": "Q4679495"}}, {"type": "node", "id": 3279345565, "lat": 41.0144875, "lon": 28.9729077, "tags": {"historic": "memorial", "name": "Hamal"}}, {"type": "node", "id": 3279348097, "lat": 40.9963923, "lon": 29.0188272, "tags": {"historic": "memorial", "name": "Atat\u00fcrk Heykeli", "name:ru": "\u0410\u0442\u0430\u0442\u044e\u0440\u043a", "name:tr": "Atat\u00fcrk Heykeli"}}, {"type": "node", "id": 3279398393, "lat": 41.030906, "lon": 28.9797878, "tags": {"fee": "yes", "name": "Masumiyet M\u00fczesi", "name:en": "The Museum of Innocence", "name:ru": "\u041c\u0443\u0437\u0435\u0439 \u043d\u0435\u0432\u0438\u043d\u043d\u043e\u0441\u0442\u0438", "name:tr": "Masumiyet M\u00fczesi", "note": "Turkish Nobel laureate Orhan Pamuk created the muse Turkish Nobel laureate Orhan Pamuk created the museum in conjunction with his novel.um in conjunction with his novel of the same name. 1000 of every object 1950-1980.", "opening_hours": "Tu-Su 10:00-18:00; Th 10:00-21:00", "tourism": "museum", "website": "http://www.masumiyetmuzesi.org", "website:en": "http://www.masumiyetmuzesi.org/?Language=ENG", "website:tr": "http://www.masumiyetmuzesi.org/?Language=TUR", "wheelchair": "no", "wikidata": "Q15961492", "wikipedia": "en:The Museum of Innocence (museum)"}}, {"type": "node", "id": 3281285898, "lat": 41.0044513, "lon": 28.9733107, "tags": {"historic": "memorial", "name": "Atat\u00fcrk"}}, {"type": "node", "id": 3281285899, "lat": 41.0042194, "lon": 28.9733768, "tags": {"historic": "memorial", "name": "Mithat Pa\u015fa"}}, {"type": "node", "id": 3373094254, "lat": 41.0056817, "lon": 28.9786693, "tags": {"name": "Hal\u0131 M\u00fczesi", "name:en": "Carpet Museum", "tourism": "museum"}}, {"type": "node", "id": 3374678647, "lat": 41.0088088, "lon": 28.9690637, "tags": {"historic": "monument", "name": "Koca Sinan Pa\u015fa K\u00fclliyesi", "name:ru": "\u041a\u043e\u043c\u043f\u043b\u0435\u043a\u0441 \u041a\u043e\u0434\u0436\u0430 \u0421\u0438\u043d\u0430\u043d-\u043f\u0430\u0448\u0438"}}, {"type": "node", "id": 3374678648, "lat": 41.0087157, "lon": 28.9677599, "tags": {"historic": "monument", "name": "Kara Mustafa Pa\u015fa K\u00fclliyesi", "name:ru": "\u041c\u0435\u0434\u0440\u0435\u0441\u0435 \u041a\u0430\u0440\u0430 \u041c\u0443\u0441\u0442\u0430\u0444\u044b-\u043f\u0430\u0448\u0438 \u041c\u0435\u0440\u0437\u0438\u0444\u043e\u0433\u043b\u0443", "name:tr": "Bayazit", "wheelchair": "limited"}}, {"type": "node", "id": 3374681017, "lat": 41.0084081, "lon": 28.9699808, "tags": {"historic": "monument", "name": "Atik Ali Pa\u015fa Medresesi"}}, {"type": "node", "id": 3383039241, "lat": 41.0087737, "lon": 28.9423415, "tags": {"historic": "monument", "name": "Bayram Pa\u015fa K\u00fclliyesi"}}, {"type": "node", "id": 3386270532, "lat": 41.0334816, "lon": 28.9769398, "tags": {"name": "Galatasaray M\u00fczesi", "name:en": "Galatasaray Museum", "tourism": "museum", "wheelchair": "no", "wikidata": "Q3329724"}}, {"type": "node", "id": 3400112453, "lat": 40.9935689, "lon": 28.9239308, "tags": {"name": "Yedi Kule Hisar\u0131 M\u00fczesi", "tourism": "museum"}}, {"type": "node", "id": 3459530817, "lat": 41.0151322, "lon": 28.9764151, "tags": {"information": "office", "name": "Tourist Information Center", "tourism": "information", "wheelchair": "yes"}}, {"type": "node", "id": 3462007765, "lat": 41.0849425, "lon": 28.4067131, "tags": {"addr:city": "\u015eelinpasa (Istanbul)", "addr:country": "TR", "caravans": "yes", "drinking_water": "yes", "name": "Istanbul Mocamp", "power_supply": "yes", "tents": "yes", "tourism": "camp_site", "trucks": "yes"}}, {"type": "node", "id": 3473367184, "lat": 41.075268, "lon": 29.0653173, "tags": {"historic": "memorial", "name": "Sevda Tepesi"}}, {"type": "node", "id": 3499223609, "lat": 41.0063795, "lon": 28.9778711, "tags": {"historic": "memorial", "name": "Sultan Ahmet Vakti", "wheelchair": "yes"}}, {"type": "node", "id": 3539708501, "lat": 41.2284365, "lon": 29.2192955, "tags": {"name": "Camping", "tourism": "camp_site"}}, {"type": "node", "id": 3658718390, "lat": 41.029932, "lon": 28.9870999, "tags": {"name": "View of the Bosphorus", "name:uk": "\u041e\u0433\u043b\u044f\u0434\u043d\u0438\u0439 \u043c\u0430\u0439\u0434\u0430\u043d\u0447\u0438\u043a \u0442\u0456\u043b\u044c\u043a\u0438 \u043d\u0430 \u0442\u0435\u0440\u0438\u0442\u043e\u0440\u0456\u0457 \u043c\u0435\u0447\u0435\u0442\u0456", "tourism": "viewpoint"}}, {"type": "node", "id": 3672537194, "lat": 41.0058436, "lon": 28.9788079, "tags": {"information": "office", "name": "Travel Information", "tourism": "information", "website": "https://privateistanbultours.com/"}}, {"type": "node", "id": 3730304425, "lat": 41.073512, "lon": 29.683488, "tags": {"name": "Yaz\u0131manay\u0131r", "tourism": "picnic_site"}}, {"type": "node", "id": 3802238410, "lat": 41.05403, "lon": 28.9338847, "tags": {"name": "Pierre Loti", "name:tr": "Pierre Loti Telfrik", "tourism": "viewpoint"}}, {"type": "node", "id": 3811143694, "lat": 41.029581, "lon": 28.9789875, "tags": {"name": "Kartonpiyer M\u00fczesi", "name:de": "Stuck Museum", "name:en": "Stucco Museum", "tourism": "museum"}}, {"type": "node", "id": 3842144057, "lat": 41.108624, "lon": 29.0107138, "tags": {"historic": "fort", "name": "S\u00fcvari Birli\u011fi Nalbanthanesi", "note": "Forbidden to enter", "wheelchair": "no"}}, {"type": "node", "id": 4031869601, "lat": 41.0607508, "lon": 28.947846, "tags": {"name": "Panorama Zafer M\u00fczesi", "name:en": "Panoramic Victory Museum", "tourism": "museum"}}, {"type": "node", "id": 4038465417, "lat": 40.8783085, "lon": 29.052751, "tags": {"name": "Kalpazankaya", "natural": "beach", "surface": "pebblestone"}}, {"type": "node", "id": 4057360456, "lat": 41.0685915, "lon": 29.0299016, "tags": {"historic": "memorial", "name": "Ahmet Adnan Saygun Heykeli", "tourism": "artwork"}}, {"type": "node", "id": 4143546850, "lat": 41.1772821, "lon": 29.5434226, "tags": {"name": "CAMP PLACE", "tourism": "camp_site"}}, {"type": "node", "id": 4143549992, "lat": 41.1709548, "lon": 29.5720096, "tags": {"name": "CAMP PLACE", "tourism": "camp_site"}}, {"type": "node", "id": 4143675991, "lat": 40.9249162, "lon": 29.1223425, "tags": {"name": "A\u011fa\u00e7", "natural": "tree"}}, {"type": "node", "id": 4143677894, "lat": 40.9226637, "lon": 29.1235616, "tags": {"name": "A\u011fa\u00e7", "natural": "tree"}}, {"type": "node", "id": 4244683312, "lat": 40.8514835, "lon": 29.1252342, "tags": {"name": "Kartal belediye tesisleri", "tourism": "camp_site"}}, {"type": "node", "id": 4258250897, "lat": 41.1414509, "lon": 29.8222795, "tags": {"name": "Green Park Camping", "tourism": "camp_site"}}, {"type": "node", "id": 4285636389, "lat": 41.0174472, "lon": 28.9750319, "tags": {"name": "\u0431\u043e\u0441\u0444\u043e\u0440 \u043f\u0430\u0440\u043e\u043c", "name:es": "long tour b\u00f3sforo. 25 TY ida y vuelta", "tourism": "information"}}, {"type": "node", "id": 4286601021, "lat": 41.0092561, "lon": 28.9531937, "tags": {"addr:city": "Aksaray/\u0130stanbul", "historic": "monument", "name": "Gizia Saat Kulesi"}}, {"type": "node", "id": 4303108295, "lat": 41.0376276, "lon": 28.882498, "tags": {"historic": "monument", "name": "Atat\u00fcrk An\u0131t\u0131"}}, {"type": "node", "id": 4318815490, "lat": 41.0052434, "lon": 28.6451552, "tags": {"name": "McPro Productions", "tourism": "viewpoint"}}, {"type": "node", "id": 4330819713, "lat": 40.9922809, "lon": 28.8453447, "tags": {"historic": "monument", "name": "Atat\u00fcrk", "name:tr": "Atat\u00fcrk An\u0131t\u0131"}}, {"type": "node", "id": 4335601789, "lat": 41.0727512, "lon": 28.9942544, "tags": {"historic": "monument", "name": "Mecidiyek\u00f6y Abidesi"}}, {"type": "node", "id": 4349443989, "lat": 41.0670737, "lon": 28.8053667, "tags": {"name": "aia sofia", "tourism": "information"}}, {"type": "node", "id": 4363666187, "lat": 41.0188099, "lon": 28.9690696, "tags": {"historic": "tomb", "name": "Zindan baba T\u00fcrbesi"}}, {"type": "node", "id": 4367565692, "lat": 40.8290513, "lon": 29.279459, "tags": {"name": "Strandpromenade", "tourism": "viewpoint"}}, {"type": "node", "id": 4367630391, "lat": 40.8133667, "lon": 29.2752271, "tags": {"name": "\u00d6zg\u00fct Sokagi", "tourism": "viewpoint"}}, {"type": "node", "id": 4390319091, "lat": 40.904076, "lon": 29.14115, "tags": {"name": "Dragos Sahili", "name:tr": "Dragos Sahili", "tourism": "viewpoint"}}, {"type": "node", "id": 4408731596, "lat": 40.9834744, "lon": 29.0401299, "tags": {"historic": "monument", "name": "Mine Gayrimenkul Dan\u0131\u015fmanl\u0131k ve Tesis Y\u00f6netim Hizmetleri", "name:tr": "Mine Gayrimenkul Dan\u0131\u015fmanl\u0131k ve Tesis Y\u00f6netim Hizmetleri"}}, {"type": "node", "id": 4449467592, "lat": 41.0914026, "lon": 28.8733877, "tags": {"addr:street": "2064 Sokak", "name": "Alskn alshbaby", "name:ar": "\u0627\u0644\u0633\u0643\u0646 \u0627\u0644\u0634\u0628\u0627\u0628\u064a", "name:tr": "Alskn alshbaby", "tourism": "caravan_site"}}, {"type": "node", "id": 4472338000, "lat": 41.0457795, "lon": 28.8963566, "tags": {"addr:city": "Istanbul", "addr:district": "Bayampa\u015fa", "addr:housenumber": "54", "addr:neighbourhood": "Pa\u015fa Caddesi", "addr:postcode": "34045", "addr:street": "Kocatepe Mahallesi", "name": "LEGOLAND Discovery Center", "opening_hours": "Mo-Su 10:00-20:00", "tourism": "theme_park", "website": "https://www.legolanddiscoverycentre.com/istanbul/"}}, {"type": "node", "id": 4504321792, "lat": 40.9890049, "lon": 29.0417255, "tags": {"historic": "monument", "name": "Tombili Heykeli", "name:en": "Tombili Cat"}}, {"type": "node", "id": 4512878889, "lat": 41.0199751, "lon": 28.9582076, "tags": {"name": "Mehmet Emin Tokadi Hazretleri Turbesi", "name:tr": "Mehmet Emin Tokadi Hazretleri Turbesi", "tourism": "information"}}, {"type": "node", "id": 4514322890, "lat": 40.962693, "lon": 28.8123769, "tags": {"name": "Ciroz Hali Saha", "tourism": "information"}}, {"type": "node", "id": 4519705090, "lat": 41.0193869, "lon": 29.0118668, "tags": {"amenity": "place_of_worship", "historic": "yes", "name": "Hac\u0131 Ahmet Pa\u015fa T\u00fcrbesi", "name:en": "Haci Ahmet Pasa Turbesi", "religion": "muslim"}}, {"type": "node", "id": 4540946906, "lat": 41.0537371, "lon": 28.9336647, "tags": {"name": "Ey\u00fcp Tepesi", "name:tr": "\u0645\u0642\u0647\u0649 \u0628\u064a\u0631\u0644\u0648\u062a\u064a", "tourism": "viewpoint"}}, {"type": "node", "id": 4549090632, "lat": 41.0482025, "lon": 29.2399897, "tags": {"historic": "monument", "name": "Atat\u00fcrk Heykeli"}}, {"type": "node", "id": 4567527928, "lat": 40.8962861, "lon": 29.185872, "tags": {"historic": "memorial", "name": "Kartall\u0131 Kaz\u0131m An\u0131t\u0131"}}, {"type": "node", "id": 4580125160, "lat": 40.8741241, "lon": 29.1286022, "tags": {"historic": "monument", "int_name": "Clock Tower", "name": "Saat Kulesi", "name:en": "Clock Tower"}}, {"type": "node", "id": 4580166831, "lat": 41.0485148, "lon": 29.2391077, "tags": {"name": "Alemda\u011f Belnet Bilgi Evi", "tourism": "information"}}, {"type": "node", "id": 4616814810, "lat": 41.0013196, "lon": 28.893524, "tags": {"name": "\u00c7\u0131rp\u0131c\u0131 Piknik Alan\u0131", "tourism": "picnic_site"}}, {"type": "node", "id": 4651286997, "lat": 41.035972, "lon": 29.0350237, "tags": {"historic": "ruins", "name": "Kuzguncuk Gazhanesi"}}, {"type": "node", "id": 4718945355, "lat": 40.959937, "lon": 28.8125445, "tags": {"name": "Florya \u00d6z\u00fcrl\u00fcler Yaz Kamp\u0131", "tourism": "camp_site"}}, {"type": "node", "id": 4721808990, "lat": 41.0101095, "lon": 28.969963, "tags": {"name": "Kapali Carsi", "name:de": "Gro\u00dfer Bazar", "name:en": "Grand Bazaar", "name:fa": "\u0628\u0627\u0632\u0627\u0631 \u0628\u0632\u0631\u06af", "name:it": "Gran Bazar", "name:ru": "\u0411\u043e\u043b\u044c\u0448\u043e\u0439 \u0431\u0430\u0437\u0430\u0440", "name:tr": "Kapal\u0131 Car\u015f\u0131", "name:zh": "2-1\u5927\u5df4\u624e", "tourism": "museum"}}, {"type": "node", "id": 4734976813, "lat": 40.9862559, "lon": 29.0273031, "tags": {"denomination": "orthodox", "name": "Aya Ekaterini Ayazmas\u0131", "name:en": "The Spring of St. Catherine", "name:ru": "\u0421\u0432\u044f\u0442\u043e\u0439 \u0438\u0441\u0442\u043e\u0447\u043d\u0438\u043a \u0421\u0432.\u0415\u043a\u0430\u0442\u0435\u0440\u0438\u043d\u044b", "natural": "spring"}}, {"type": "node", "id": 4736308967, "lat": 41.0313659, "lon": 29.0273578, "tags": {"leaf_type": "needleleaved", "name": "Be\u015f kollu a\u011fa\u00e7", "natural": "tree"}}, {"type": "node", "id": 4816001723, "lat": 40.9849088, "lon": 29.0338966, "tags": {"historic": "memorial", "name": "Atat\u00fcrk B\u00fcst\u00fc", "name:en": "Atat\u00fcrk Monument"}}, {"type": "node", "id": 4831172762, "lat": 40.9656268, "lon": 29.2673074, "tags": {"historic": "memorial", "name": "ATAT\u00dcRK Heykeli"}}, {"type": "node", "id": 4846342321, "lat": 40.9896047, "lon": 29.0290813, "tags": {"historic": "memorial", "name": "Ali Suavi An\u0131t\u0131", "name:tr": "Ali Suavi An\u0131t\u0131"}}, {"type": "node", "id": 4858368522, "lat": 40.9170331, "lon": 29.1372418, "tags": {"historic": "memorial", "name": "GARANTI KOZA SITESI", "name:tr": "GARANTI KOZA SITESI"}}, {"type": "node", "id": 4874834021, "lat": 40.9940046, "lon": 28.9222378, "tags": {"historic": "memorial", "name": "Sur Kap\u0131s\u0131", "name:tr": "Sur Kap\u0131s\u0131"}}, {"type": "node", "id": 4878137863, "lat": 40.8564975, "lon": 29.1250164, "tags": {"addr:street": "Aya Nikola Mevkii", "name": "Museum of the Princes' Islands", "name:tr": "Adalar M\u00fczesi", "opening_hours": "Tu-Su 09:00-18:00", "tourism": "museum", "website": "http://www.adalarmuzesi.org/cms/english", "wikidata": "Q20474042", "wikipedia": "en:Museum of the Princes' Islands"}}, {"type": "node", "id": 4879822721, "lat": 41.0264031, "lon": 28.9814966, "tags": {"name": "Galataport", "name:en": "Galataport", "name:tr": "Galataport", "tourism": "viewpoint"}}, {"type": "node", "id": 4889905032, "lat": 41.0238724, "lon": 28.9734736, "tags": {"addr:city": "Istanbul", "addr:district": "Karak\u00f6y", "addr:housenumber": "11", "addr:postcode": "34420", "addr:street": "Bankalar Caddesi", "name": "SALT Galata", "name:en": "SALT Galata", "name:tr": "SALT Galata", "opening_hours": "Tu-Sa 09:00-20:00; Su 12:00-18:00", "phone": "+90 212 334 22 00", "tourism": "museum", "website": "https://saltonline.org/"}}, {"type": "node", "id": 4889905033, "lat": 41.0096327, "lon": 29.0143802, "tags": {"historic": "monument", "name": "B\u00fck\u00fcc\u00fcler Han", "name:en": "B\u00fck\u00fcc\u00fcler Han", "name:tr": "B\u00fck\u00fcc\u00fcler Han"}}, {"type": "node", "id": 4889905038, "lat": 41.0289283, "lon": 28.9747482, "tags": {"name": "Ziraat Bankasi Sanat Galerisi", "name:en": "Ziraat Bankasi Sanat Galerisi", "name:ru": "\u041c\u0443\u0437\u0435\u0439 \u043a\u0440\u0443\u0442\u044f\u0449\u0438\u0445\u0441\u044f \u0434\u0435\u0440\u0432\u0438\u0448\u0435\u0439", "name:tr": "Ziraat Bankasi Sanat Galerisi", "tourism": "museum"}}, {"type": "node", "id": 4889958232, "lat": 41.0303466, "lon": 28.9754498, "tags": {"addr:housenumber": "160A", "addr:postcode": "34433", "addr:street": "\u0130stiklal Caddesi", "name": "Borusan Sanat", "name:en": "Borusan Art", "name:tr": "Borusan Sanat", "opening_hours": "Mo-Fr 09:30-18:00", "phone": "+902127058700", "tourism": "museum", "wheelchair": "no"}}, {"type": "node", "id": 4889958233, "lat": 41.0343692, "lon": 28.9822141, "tags": {"name": "Istanbul Fotograf Galerisi", "name:en": "The Photographer's Gallery", "name:tr": "Istanbul Fotograf Galerisi", "tourism": "museum"}}, {"type": "node", "id": 4889958234, "lat": 41.0332891, "lon": 28.9795904, "tags": {"name": "ISTANBUL'74", "name:en": "ISTANBUL'74", "name:tr": "ISTANBUL'74", "tourism": "museum"}}, {"type": "node", "id": 4889959431, "lat": 41.0304385, "lon": 28.9757547, "tags": {"addr:housenumber": "181", "addr:postcode": "34433", "addr:street": "\u0130stiklal Caddesi", "name": "ARTER", "name:en": "ARTER", "name:tr": "ARTER", "opening_hours": "Tu-Th 11:00-19:00; Fr-Su 12:00-20:00", "phone": "+902127085800", "tourism": "museum", "website": "http://www.arter.org.tr", "wheelchair": "limited"}}, {"type": "node", "id": 4889959432, "lat": 41.0359742, "lon": 28.9831213, "tags": {"name": "AK Bank Sanat Galerisi", "name:en": "AK Bank Sanat Galerisi", "name:tr": "AK Bank Sanat Galerisi", "tourism": "museum", "wheelchair": "limited"}}, {"type": "node", "id": 4889959434, "lat": 41.0357703, "lon": 28.9783705, "tags": {"name": "Dogan\u00e7ay M\u00fczesi", "name:en": "Dogan\u00e7ay M\u00fczesi", "name:tr": "Dogan\u00e7ay M\u00fczesi", "tourism": "museum"}}, {"type": "node", "id": 4889959435, "lat": 41.0326418, "lon": 28.9777224, "tags": {"name": "T\u00fcrvak T\u00fcrker Inanoglu Vakfi", "name:en": "Cinema Museum", "name:tr": "T\u00fcrvak T\u00fcrker Inanoglu Vakfi", "tourism": "museum"}}, {"type": "node", "id": 4922906921, "lat": 41.0207174, "lon": 28.6697651, "tags": {"addr:street": "1048. Sokak", "name": "Hasbah\u00e7e KONAKLARI", "name:tr": "Hasbah\u00e7e KONAKLARI", "tourism": "camp_site"}}, {"type": "node", "id": 4931776121, "lat": 41.161437, "lon": 29.6778802, "tags": {"name": "sakl\u0131k\u00f6y", "tourism": "camp_site"}}, {"type": "node", "id": 4945509321, "lat": 41.0168876, "lon": 28.9599711, "tags": {"historic": "castle", "name": "Vefa", "name:tr": "Vefa"}}, {"type": "node", "id": 4948245826, "lat": 41.3750283, "lon": 28.5746915, "tags": {"name": "Terkos kamp", "name:tr": "Terkos kamp", "tourism": "camp_site"}}, {"type": "node", "id": 4948245827, "lat": 41.3861928, "lon": 28.5532376, "tags": {"name": "Terkos 2.kamp alan\u0131", "name:tr": "Terkos 2.kamp alan\u0131", "tourism": "camp_site"}}, {"type": "node", "id": 4948245828, "lat": 41.3922521, "lon": 28.5295814, "tags": {"name": "Terkos 3.kamp alan\u0131", "name:tr": "Terkos 3.kamp alan\u0131", "tourism": "camp_site"}}, {"type": "node", "id": 4948245829, "lat": 41.4015179, "lon": 28.5057608, "tags": {"name": "Bslaban 1. Kamp alan\u0131", "name:tr": "Bslaban 1. Kamp alan\u0131", "tourism": "camp_site"}}, {"type": "node", "id": 4948245830, "lat": 41.4322624, "lon": 28.4284077, "tags": {"name": "Ormanl\u0131 1.kamp alan\u0131", "tourism": "camp_site"}}, {"type": "node", "id": 4948245831, "lat": 41.4497719, "lon": 28.3833199, "tags": {"name": "Karacak\u00f6y 1. Kamp alan\u0131", "tourism": "camp_site"}}, {"type": "node", "id": 4948246233, "lat": 41.4077023, "lon": 28.4909228, "tags": {"name": "Balaban 2.kamp alan\u0131", "name:tr": "Balaban 2.kamp alan\u0131", "tourism": "camp_site"}}, {"type": "node", "id": 4948246234, "lat": 41.4223428, "lon": 28.45639, "tags": {"name": "Ormanl\u0131 2. Kamp alan\u0131", "tourism": "camp_site"}}, {"type": "node", "id": 4977947521, "lat": 41.0142319, "lon": 28.9529591, "tags": {"historic": "castle", "name": "Ayios Polieuktos Kilisesi", "name:en": "Church of St. Polyeuktos", "name:tr": "Ayios Polieuktos Kilisesi"}}, {"type": "node", "id": 4990028128, "lat": 41.0087318, "lon": 28.9809561, "tags": {"addr:city": "\u0130stanbul", "addr:district": "Fatih", "addr:housenumber": "14", "addr:neighbourhood": "Cankurtaran Mahallesi", "addr:postcode": "34122", "addr:street": "So\u011fuk\u00e7e\u015fme Sokak", "email": "info@halimuzesi.com", "name": "Hal\u0131 M\u00fczesi", "name:ar": "\u0645\u062a\u062d\u0641 \u0627\u0644\u0633\u062c\u0627\u062f", "name:de": "Teppichmuseum", "name:en": "Carpet Museum", "name:es": "Museo de las alfombras", "name:it": "Museo del tappeto", "name:ru": "\u041c\u0443\u0437\u0435\u0439 \u041a\u043e\u0432\u0440\u043e\u0432", "name:tr": "Hal\u0131 M\u00fczesi", "phone": "+90 212 512 69 93", "tourism": "museum", "website": "http://www.halimuzesi.com"}}, {"type": "node", "id": 5001163522, "lat": 40.9904633, "lon": 29.1259102, "tags": {"historic": "monument", "name": "M.K. Atat\u00fcrk & Salvador Allende"}}, {"type": "node", "id": 5076115933, "lat": 40.9961764, "lon": 28.9294256, "tags": {"addr:city": "Istanbul", "addr:district": "Fatih", "addr:street": "Imam Asir Sokak", "name": "Emre belezoglu parki", "name:ar": "\u062d\u062f\u064a\u0642\u0629 \u0623\u064a\u0645\u0631\u064a \u0628\u064a\u0644\u064a\u0632 \u0623\u0648\u063a\u0644\u0648", "tourism": "picnic_site"}}, {"type": "node", "id": 5081442472, "lat": 41.0202162, "lon": 28.9579532, "tags": {"addr:city": "Istanbul", "addr:district": "Fatih", "addr:street": "Atat\u00fcrk Boulevard", "name": "Zeyrek Sarn\u0131c\u0131", "name:ar": "\u0635\u0647\u0631\u064a\u062c \u0632\u064a\u0631\u064a\u0643", "name:en": "Zeyrek Cistern", "operator": "Govermental", "tourism": "viewpoint"}}, {"type": "node", "id": 5081442512, "lat": 41.0252799, "lon": 28.9584325, "tags": {"addr:city": "Istanbul", "addr:district": "Fatih", "addr:street": "Nal\u0131nc\u0131 Kas\u0131m Sokak", "name": "Rezan Has Museum", "name:ar": "\u0645\u062a\u062d\u0641 \u0631\u064a\u0632\u0627\u0646 \u0647\u0627\u0633", "name:tr": "Rezan Has M\u00fczesi", "tourism": "museum", "wikidata": "Q7319839"}}, {"type": "node", "id": 5100825066, "lat": 41.0226342, "lon": 28.9311825, "tags": {"addr:city": "Istanbul", "addr:district": "Fatih", "addr:street": "\u00c7ay\u0131r Meydan\u0131 Caddesi", "name": "Natuk Baytan Park\u0131", "name:ar": "\u062d\u062f\u064a\u0642\u0629 \u0646\u0627\u062a\u0648\u0646 \u0628\u0627\u064a\u062a\u0627\u0643", "tourism": "picnic_site"}}, {"type": "node", "id": 5100825083, "lat": 41.0206149, "lon": 28.9286443, "tags": {"addr:city": "Istanbul", "addr:district": "Fatih", "addr:street": "Bican Ba\u011fc\u0131o\u011flu Yoku\u015fu", "name": "Topkap\u0131 Kalei\u00e7i Park\u0131", "name:ar": "\u062d\u062f\u064a\u0642\u0629 \u062a\u0648\u0628\u0643\u0627\u0628\u064a \u0643\u0627\u0644\u064a \u0625\u064a\u062c\u064a", "tourism": "picnic_site"}}, {"type": "node", "id": 5103810745, "lat": 41.0182141, "lon": 28.929892, "tags": {"addr:city": "Istanbul", "addr:district": "Fatih", "addr:street": "K\u00fcrk\u00e7\u00fc Bostan\u0131 Soka\u011f\u0131", "name": "ORU\u00c7BABA T\u00dcRBES\u0130 park\u0131", "name:ar": "\u062d\u062f\u064a\u0642\u0629 \u0623\u0648\u0631\u0648\u062c\u0628\u0627\u0628\u0627 \u062a\u0648\u0631\u0628\u064a\u0633\u064a", "tourism": "picnic_site"}}, {"type": "node", "id": 5103810747, "lat": 41.0192249, "lon": 28.9296718, "tags": {"addr:city": "Istanbul", "addr:district": "Fatih", "addr:street": "Sefa Bostan\u0131 soka\u011f\u0131", "name": "Sefa Bostan\u0131 Park\u0131", "name:ar": "\u062d\u062f\u064a\u0642\u0629 \u0633\u064a\u0641\u0627 \u0628\u0648\u0633\u062a\u0627\u0646\u064a", "tourism": "picnic_site"}}, {"type": "node", "id": 5103810789, "lat": 41.0196249, "lon": 28.9277844, "tags": {"addr:city": "Istanbul", "addr:district": "Fatih", "addr:street": "Topkap\u0131 caddesi", "name": "Hamidiye K\u00fclt\u00fcr Ve E\u011fitim Vakf\u0131 Topkap\u0131 Nusret", "name:ar": "\u0645\u062a\u062d\u0641 \u062d\u0627\u0645\u062f\u064a\u0629 \u0627\u0644\u062b\u0642\u0627\u0641\u064a \u0648 \u0627\u0644\u062a\u0639\u0644\u064a\u0645\u064a", "tourism": "museum"}}, {"type": "node", "id": 5104806200, "lat": 41.4001675, "lon": 28.4709489, "tags": {"name": "Ormanl\u0131 K\u00f6y\u00fc Piknik Alanlar\u0131", "tourism": "picnic_site"}}, {"type": "node", "id": 5105090523, "lat": 41.0707133, "lon": 28.9215171, "tags": {"addr:city": "Istanbul", "addr:district": "Ey\u00fcp", "addr:housenumber": "No: 11/1", "addr:neighbourhood": "Ye\u015filp\u0131nar Mahallesi", "addr:postcode": "34065", "addr:street": "\u015eehit Metin Kaya Sokak", "description": "\u0130sfanbul ya da eski ad\u0131yla Vialand T\u00fcrkiye\u2019de in\u015fa edilmi\u015f ilk temal\u0131 parkt\u0131r. \u0130stanbul ilinin Ey\u00fcpsultan ve Gaziosmanpa\u015fa il\u00e7eleri \u00fczerinde yer alan park 26 May\u0131s 2013 tarihinde d\u00f6nemin ba\u015fbakan\u0131 Recep Tayyip Erdo\u011fan taraf\u0131ndan resmen hizmete a\u00e7\u0131ld\u0131. ", "fixme": "Vialand kapand\u0131, art\u0131k orada \u0130sfanbul Tema Park yer al\u0131yor. ", "name": "\u0130sfanbul Tema Park", "operator": "\u0130sfanbul", "tourism": "theme_park"}}, {"type": "node", "id": 5107045232, "lat": 41.0728811, "lon": 28.1609749, "tags": {"addr:city": "\u0130stanbul", "addr:district": "Silivri", "addr:neighbourhood": "Semizkumlar Mahallesi", "email": "oben-isin@hotmail.com", "name": "Semizkum Mocamp", "phone": "+90212 711 20 58", "phone_1": "+90212 711 29 06", "tourism": "camp_site", "tourism_1": "caravan_site"}}, {"type": "node", "id": 5107247542, "lat": 41.0039596, "lon": 28.9302174, "tags": {"addr:city": "Istanbul", "addr:district": "Fatih", "addr:street": "Turan Topal Sokak", "name": "Kocamustafapa\u015fa Park\u0131", "name:ar": "\u0643\u0648\u062c\u0627 \u0645\u0635\u0637\u0641\u0649 \u0628\u0627\u0634\u0627 \u0628\u0627\u0631\u0643", "tourism": "picnic_site"}}, {"type": "node", "id": 5108828006, "lat": 41.0128714, "lon": 28.9778917, "tags": {"addr:city": "Istanbul", "addr:district": "Fatih", "addr:street": "H\u00fcdavendigar Caddesi", "name": "Lions Rug and kilims Art Gallery", "name:ar": "\u0645\u062a\u062d\u0641 \u0644\u064a\u0648\u0646\u0632 \u0631\u0648\u063a \u0648 \u0643\u064a\u0644\u064a\u0645\u0633 \u0623\u0631\u062a \u063a\u0627\u0644\u0627\u0631\u064a", "phone": "+90 212 512 71 23", "tourism": "museum"}}, {"type": "node", "id": 5108828680, "lat": 41.0152694, "lon": 28.9770206, "tags": {"addr:city": "Istanbul", "addr:district": "Fatih", "addr:postcode": "34110", "addr:street": "Sirkeci \u0130stasyon Caddesi", "name": "\u0130stanbul Demiryolu M\u00fczesi", "name:ar": "\u0645\u062a\u062d\u0641 \u0627\u0644\u0633\u0643\u0643 \u0627\u0644\u062d\u062f\u064a\u062f\u064a\u0629 \u0627\u0633\u0637\u0646\u0628\u0648\u0644", "name:en": "\u0130stanbul Railway Museum", "opening_hours": "Tu-Sa 09:00-17:00", "phone": "(0212) 520 65 75", "tourism": "museum"}}, {"type": "node", "id": 5108828685, "lat": 41.0162948, "lon": 28.9819365, "tags": {"addr:city": "Istanbul", "addr:district": "Fatih", "addr:street": "Kennedy Cd", "name": "Sepet\u00e7iler Kasr\u0131", "name:ar": "\u0642\u0635\u0631 \u0633\u0628\u0627\u062a\u0634\u064a\u0644\u0627\u0631", "name:en": "Sepet\u00e7iler Pavilion", "tourism": "museum"}}, {"type": "node", "id": 5108828689, "lat": 41.0175429, "lon": 28.9857457, "tags": {"addr:city": "Istanbul", "addr:district": "Fatih", "addr:street": "kennedy Cd", "name": "Sarayburnu Manzaras\u0131", "name:ar": "\u0645\u0639\u0644\u0645 \u0633\u064a\u0627\u062d\u064a \u0633\u0627\u0631\u0627\u064a\u0628\u0648\u0631\u0646\u0648", "tourism": "viewpoint"}}, {"type": "node", "id": 5108837421, "lat": 41.0135234, "lon": 28.9753428, "tags": {"addr:city": "Istanbul", "addr:district": "Fatih", "addr:street": "Ebussuut Caddesi", "information": "office", "name": "Ta\u015fkent Dan\u0131\u015fmanl\u0131k Turizm Ticaret", "name:ar": "\u062a\u0627\u0634\u0643\u064a\u0646\u062a \u062f\u0627\u0646\u0634\u0645\u0627\u0646\u0644\u0643 \u062a\u0648\u0631\u064a\u0632\u0645 \u062a\u064a\u062c\u0627\u0631\u064a\u062a", "phone": "+90 212 527 18 83", "tourism": "information"}}, {"type": "node", "id": 5108837436, "lat": 41.0142713, "lon": 28.9756894, "tags": {"addr:city": "Istanbul", "addr:district": "Fatih", "addr:street": "Hocapa\u015fa Hamam\u0131 Sokak", "name": "Hodjapasta", "name:ar": "\u0645\u062a\u062d\u0641 \u0647\u0648\u062f\u062c\u0627\u0628\u0627\u0633\u062a\u0627", "tourism": "museum"}}, {"type": "node", "id": 5108837438, "lat": 41.0140444, "lon": 28.9756133, "tags": {"addr:city": "Istanbul", "addr:district": "Fatih", "addr:street": "Hoca Pa\u015fa Sokak", "name": "Tasciri Spettacolo", "name:ar": "\u0645\u062a\u062d\u0641 \u062a\u0627\u0633\u062c\u064a\u0631\u064a \u0633\u0628\u064a\u062a\u0627\u062c\u0648\u0644\u0648", "tourism": "museum"}}, {"type": "node", "id": 5110342142, "lat": 41.0147778, "lon": 28.959381, "tags": {"historic": "tomb", "landuse": "cemetery", "name": "Molla H\u00fcsrev cami Turbas\u0131", "name:ar": "\u0645\u0632\u0627\u0631 \u062c\u0627\u0645\u0639 \u0645\u0644\u0627 \u062d\u0648\u0633\u0631\u0648\u0641"}}, {"type": "node", "id": 5111212264, "lat": 41.0116571, "lon": 28.9719397, "tags": {"addr:city": "Istanbul", "addr:district": "Fatih", "addr:street": "Bezciler sokak", "name": "Cesme", "name:ar": "\u062c\u064a\u0634\u0645\u0649", "tourism": "viewpoint"}}, {"type": "node", "id": 5111212308, "lat": 41.0161663, "lon": 28.972621, "tags": {"addr:city": "Istanbul", "addr:district": "Fatih", "addr:housenumber": "02125111331", "addr:street": "Bankac\u0131lar Sokak", "email": "info@isbankmuze.com.tr", "name": "\u0130\u015f Bankas\u0131 M\u00fczesi", "name:ar": "\u0627\u0634 \u0628\u0627\u0646\u0643\u0627\u0633\u064a \u0645\u064a\u0648\u0632\u064a\u0645", "name:en": "\u0130\u015fbank Museum", "name:tr": "T\u00fcrkiye \u0130\u015f Bankas\u0131 M\u00fczesi", "opening_hours": "Mo-Su 10:00-18:00", "tourism": "museum", "website": "https://muze.isbank.com.tr/", "wikidata": "Q16850066"}}, {"type": "node", "id": 5112732265, "lat": 41.0099458, "lon": 28.9615545, "tags": {"addr:city": "Istanbul", "addr:district": "Fatih", "addr:housenumber": "02124400000", "addr:street": "Ordu Caddesi", "email": "muzeyum@istanbul.edu.tr", "name": "Beyaz\u0131t T\u00fcrk Hamam K\u00fclt\u00fcr\u00fc M\u00fczesi", "name:ar": "\u0645\u062a\u062d\u0641 \u062b\u0642\u0627\u0641\u0629 \u0627\u0644\u062d\u0645\u0627\u0645 \u0627\u0644\u062a\u0631\u0643\u064a", "name:en": "II.  Bayezid Turkish Bath Culture Museum", "name:tr": "II. Bayezid T\u00fcrk Hamam K\u00fclt\u00fcr\u00fc M\u00fczesi", "tourism": "museum", "website": "https://muzeyum.istanbul.edu.tr/"}}, {"type": "node", "id": 5112737072, "lat": 41.0140277, "lon": 28.9668873, "tags": {"addr:city": "Istanbul", "addr:district": "Fatih", "addr:street": "Tacirhane Soka\u011f\u0131", "name": "Sars\u0131lmaz Park\u0131", "name:ar": "\u062d\u062f\u064a\u0642\u0629 \u0633\u0627\u0631\u0633\u064a\u0644\u0645\u0627\u0632 \u0628\u0627\u0631\u0643\u0647", "tourism": "picnic_site"}}, {"type": "node", "id": 5112749743, "lat": 41.0316836, "lon": 28.9399151, "tags": {"addr:city": "Istanbul", "addr:district": "Fatih", "addr:street": "Kariye T\u00fcrbesi Soka\u011f\u0131", "name": "Kariye \u015eehir Park\u0131", "name:ar": "\u062d\u062f\u064a\u0642\u0629 \u0643\u0627\u0631\u064a\u064a\u0627 \u0634\u064a\u0647\u064a\u0631", "tourism": "picnic_site"}}, {"type": "node", "id": 5112749750, "lat": 41.0334539, "lon": 28.9402054, "tags": {"addr:city": "Istanbul", "addr:district": "Fatih", "addr:street": "Hekim \u00c7elebi Ar.", "name": "Tekn\u00fc Saray Park\u0131", "name:ar": "\u062d\u062f\u064a\u0642\u0629 \u062a\u064a\u0643\u0646\u0648 \u0633\u0627\u0631\u0627\u064a", "tourism": "picnic_site"}}, {"type": "node", "id": 5112749769, "lat": 41.031313, "lon": 28.9412555, "tags": {"addr:city": "Istanbul", "addr:district": "Fatih", "addr:street": "Salma Tomruk Caddesi", "name": "Alt\u0131nay Spor Kulubu", "name:ar": "\u0646\u0627\u062f\u064a \u0627\u0644\u062a\u064a\u0646\u0627\u064a \u0627\u0644\u0631\u064a\u0627\u0636\u064a", "tourism": "picnic_site"}}, {"type": "node", "id": 5112750009, "lat": 41.0376062, "lon": 28.9428599, "tags": {"addr:city": "Istanbul", "addr:district": "Fatih", "addr:street": "A\u011fa\u00e7l\u0131 \u00c7e\u015fme Soka\u011f\u0131", "historic": "tomb", "name": "Ebuzer Gifari T\u00fcrbesi", "name:ar": "\u0636\u0631\u064a\u062d \u0623\u0628\u0648 \u0630\u0631 \u0627\u0644\u063a\u0641\u0627\u0631\u064a"}}, {"type": "node", "id": 5112750821, "lat": 41.0350066, "lon": 28.9436976, "tags": {"addr:city": "Istanbul", "addr:district": "Fatih", "addr:street": "Kola\u011fas\u0131 Soka\u011f\u0131", "name": "Molla A\u015fk\u0131 Park\u0131", "name:ar": "\u062d\u062f\u064a\u0642\u0629 \u0645\u0648\u0644\u0627 \u0622\u0634\u0643\u0647", "tourism": "picnic_site"}}, {"type": "node", "id": 5112750831, "lat": 41.0379318, "lon": 28.9411029, "tags": {"addr:city": "Istanbul", "addr:district": "Fatih", "addr:street": "Mahkeme K\u00fclhan\u0131 Soka\u011f\u0131", "historic": "tomb", "name": "\u0130vaz Efendi \u00c7e\u015fmesi", "name:ar": "\u0646\u0627\u0641\u0648\u0631\u0629 \u0625\u064a\u0641\u0627\u0632 \u0625\u0641\u0646\u062f\u064a"}}, {"type": "node", "id": 5112750840, "lat": 41.0391463, "lon": 28.9448411, "tags": {"addr:city": "Istanbul", "addr:district": "Fatih", "addr:street": "Ayvansaray Caddesi", "name": "Ayvansaray Cemil Meri\u00e7 G\u00f6rme \u00d6z\u00fcrl\u00fcler Park\u0131", "name:ar": "\u062d\u062f\u064a\u0642\u0629 \u0623\u064a\u0641\u0627\u0646\u0633\u0631\u0627\u064a \u062c\u0645\u064a\u0644 \u0645\u064a\u0631\u064a\u062a\u0634 \u063a\u0648\u0631\u0645\u0647 \u0623\u0648\u0632\u0648\u0631\u0644\u0648\u0644\u0627\u0631 \u0628\u0627\u0631\u0643\u0647", "tourism": "picnic_site"}}, {"type": "node", "id": 5112750859, "lat": 41.0364375, "lon": 28.9465169, "tags": {"addr:city": "Istanbul", "addr:district": "Fatih", "addr:street": "Ayvansaray Caddesi", "name": "Balat Park\u0131", "name:ar": "\u062d\u062f\u064a\u0642\u0629 \u0628\u0627\u0644\u0627\u062a", "tourism": "picnic_site"}}, {"type": "node", "id": 5112750860, "lat": 41.0362364, "lon": 28.9454188, "tags": {"addr:city": "Istanbul", "addr:district": "Fatih", "addr:street": "Ayvansaray Caddesi", "name": "Mahkeme Alt\u0131 Park\u0131", "name:ar": "\u062d\u062f\u064a\u0642\u0629 \u0645\u0627\u0647\u0643\u064a\u0645\u0647 \u0623\u0644\u062a\u0647", "tourism": "picnic_site"}}, {"type": "node", "id": 5112750874, "lat": 41.0345193, "lon": 28.94523, "tags": {"addr:city": "Istanbul", "addr:district": "Fatih", "addr:street": "Kahkaha Soka\u011f\u0131", "name": "Mahmut Celalettin \u00d6kten Park", "name:ar": "\u062d\u062f\u064a\u0642\u0629 \u0645\u062d\u0645\u0648\u062f \u062c\u0644\u0627\u0644 \u0627\u0644\u062f\u064a\u0646 \u0623\u0648\u0643\u062a\u0627\u0646", "tourism": "picnic_site"}}, {"type": "node", "id": 5112966975, "lat": 40.9979229, "lon": 28.9485444, "tags": {"addr:city": "Istanbul", "addr:district": "Fatih", "addr:street": "Kennedy caddesi", "name": "Yenikap\u0131 piknik alan\u0131", "name:ar": "\u0641\u0633\u062d\u0629 \u062a\u0646\u0632\u0647 \u064a\u0646\u064a \u0643\u0627\u0628\u064a", "tourism": "picnic_site"}}, {"type": "node", "id": 5113472201, "lat": 41.0061265, "lon": 28.9214812, "tags": {"addr:city": "Istanbul", "addr:district": "Fatih", "addr:street": "Silivrikap\u0131 Caddesi", "name": "Seyyid Mehmet Haydar Dede", "name:ar": "\u0645\u0646\u062a\u0632\u0647 \u0633\u064a\u062f \u0645\u0647\u0645\u064a\u062a \u0647\u0627\u064a\u062f\u0631 \u062f\u064a\u062f\u064a", "tourism": "picnic_site"}}, {"type": "node", "id": 5113473737, "lat": 41.0119913, "lon": 28.9258939, "tags": {"addr:city": "Istanbul", "addr:district": "Fatih", "addr:street": "Keresteci Veli Sokak", "name": "Ibrahim Cavus Parki", "name:ar": "\u0645\u0646\u062a\u0632\u0647 \u0625\u0628\u0631\u0627\u0647\u064a\u0645 \u062c\u0627\u0641\u0648\u0633 \u0628\u0627\u0631\u0643\u064a", "tourism": "picnic_site"}}, {"type": "node", "id": 5113500244, "lat": 41.0074938, "lon": 28.9740907, "tags": {"addr:city": "Istanbul", "addr:district": "Fatih", "addr:street": "\u0130mran \u00f6ktem caddesi", "name": "Binbirdirek saranc\u0131", "name:ar": "\u0628\u064a\u0646 \u0628\u064a\u0631 \u062f\u064a\u0631\u064a\u0643 \u0633\u0627\u0631\u0627\u0646\u062c\u0649", "tourism": "museum"}}, {"type": "node", "id": 5113500256, "lat": 41.0062218, "lon": 28.9746583, "tags": {"addr:city": "Istanbul", "addr:district": "Fatih", "addr:street": "Atmeydan\u0131 Caddesi", "internet_access": "wlan", "name": "T\u00fcrk ve \u0130slam Eserleri M\u00fczesi", "name:ar": "\u0645\u062a\u062d\u0641 \u0627\u0644\u0622\u062b\u0627\u0631 \u0627\u0644\u062a\u0631\u0643\u064a\u0629 \u0648\u0627\u0644\u0625\u0633\u0644\u0627\u0645\u064a\u0629", "name:de": "Museum f\u00fcr t\u00fcrkische und islamische Kunst", "name:en": "Museum of Turkish and Islamic arts", "name:es": "Museo de arte Turco e Isl\u00e1mico", "name:fa": "\u0645\u0648\u0632\u0647 \u0647\u0646\u0631 \u0648 \u0647\u0646\u0631 \u0627\u0633\u0644\u0627\u0645\u06cc \u062a\u0631\u06a9\u06cc\u0647", "name:he": "\u200f\u05de\u05d5\u05d6\u05d9\u05d0\u05d5\u05df \u05d4\u05d0\u05d5\u05de\u05e0\u05d5\u05ea \u05d4\u05d8\u05d5\u05e8\u05e7\u05d9\u05ea \u05d5\u05d4\u05d0\u05e1\u05dc\u05d0\u05de\u05d9\u05ea", "name:tr": "T\u00fcrk ve \u0130slam Eserleri M\u00fczesi", "opening_hours": "Mo-Su 09:00-19:00", "phone": "+90 212 518 18 05", "tourism": "museum", "website": "https://muze.gen.tr/"}}, {"type": "node", "id": 5113500272, "lat": 41.0078444, "lon": 28.9735074, "tags": {"addr:city": "Istanbul", "addr:district": "Fatih", "addr:housenumber": "No: 3/D", "addr:neighbourhood": "Binbirdirek Mahallesi", "addr:postcode": "34122", "addr:street": "Klod Farer Caddesi", "description": "Travel Tips Turkey is focused on offering travel managements of the most outstanding quality, consolidating our vitality and excitement, with our years of involvement in the business.", "email": "info@traveltips.com.tr", "fax": "+90 212 458 0813", "name": "Travel Tips Turkey", "name:ar": "\u062a\u0631\u0627\u0641\u0644 \u062a\u064a\u0628\u0633", "opening_hours": "Mo-Su 09:00-22:00", "payment:cash": "yes", "payment:mastercard": "yes", "payment:visa": "yes", "phone": "+90 212 458 0811", "shop": "travel_agency", "source": "local knowledge", "start_date": "2015-02-14", "tourism": "information", "website": "https://www.traveltips.com.tr"}}, {"type": "node", "id": 5113592202, "lat": 41.0112305, "lon": 28.9411363, "tags": {"denomination": "sunni", "historic": "tomb", "name": "Molla Gorani Hazretlerinin Kabri", "name:ar": "\u0642\u0628\u0631 \u0627\u0644\u0645\u0644\u0627 \u063a\u0648\u0631\u0627\u0646\u064a", "religion": "muslim"}}, {"type": "node", "id": 5113620605, "lat": 41.0081374, "lon": 28.9789188, "tags": {"addr:city": "Istanbul", "addr:district": "Turkey", "email": "contact@muze.gen.tr", "name": "T.C. k\u00fclt\u00fcr ve turizm bakanl\u0131\u011f\u0131 ayasofya", "name:ar": "\u0645\u062f\u064a\u0631\u064a\u0629 \u0627\u0644\u062b\u0642\u0627\u0641\u0629 \u0648\u0627\u0644\u0633\u064a\u0627\u062d\u0629", "name:en": "T. C. Culture and Tourism Ministry, the Hagia Sophia Museum Directorate", "tourism": "museum", "website": "https://muze.gen.tr/"}}, {"type": "node", "id": 5113620606, "lat": 41.008337, "lon": 28.9792172, "tags": {"addr:city": "Istanbul", "addr:district": "Turkey", "addr:street": "So\u011fuk\u00e7e\u015fme Sokak", "name": "Ayasofya M\u00fczesi", "name:ar": "\u0645\u062a\u062d\u0641 \u0627\u0644\u064a\u0627 \u0635\u0648\u0641\u064a\u0627", "name:en": "Ayasofya Museum", "name:es": "Museo de Santa Sof\u00eda", "name:tr": "\u0421\u043e\u0444\u0438\u0439\u0441\u043a\u0438\u0439 \u0441\u043e\u0431\u043e\u0440", "opening_hours": "Tu-Su 09:00-17:00", "toilets:wheelchair": "no", "tourism": "museum", "website": "https://muze.gen.tr/", "wheelchair": "limited"}}, {"type": "node", "id": 5113620667, "lat": 41.0083838, "lon": 28.9787897, "tags": {"addr:city": "Istanbul", "addr:district": "Turkey", "addr:street": "Alemdar Caddesi", "information": "office", "name": "Ticket Shop", "name:ar": "\u0645\u062d\u0644 \u0628\u064a\u0639 \u062a\u0630\u0627\u0643\u0631 \u0627\u0644\u062f\u062e\u0648\u0644", "name:ru": "\u0411\u0438\u043b\u0435\u0442\u043d\u0430\u044f \u043a\u0430\u0441\u0441\u0430", "tourism": "information"}}, {"type": "node", "id": 5113620695, "lat": 41.0130407, "lon": 28.978941, "tags": {"addr:city": "Istanbul", "addr:district": "Turkey", "name": "\u0130slam bilim ve teknoloji tarihi m\u00fczesi", "name:ar": "\u0645\u062a\u062d\u0641 \u0627\u0644\u0639\u0644\u0645 \u0648\u062a\u0644\u062a\u0643\u0646\u0648\u0644\u0648\u062c\u064a\u0627 \u0627\u0644\u0625\u0633\u0644\u0627\u0645\u064a\u0629 \u0627\u0644\u062a\u0627\u0631\u064a\u062e\u064a", "tourism": "museum"}}, {"type": "node", "id": 5115935414, "lat": 41.0071684, "lon": 28.9269866, "tags": {"cemetry": "grave", "denomination": "sunni", "historic": "tomb", "landuse": "cemetery", "name": "\u015eeyh Seyyid Seyfullah Hz.", "name:ar": "\u0642\u0628\u0631 \u0627\u0644\u0634\u064a\u062e \u0633\u064a\u062f \u0633\u064a\u0641 \u0627\u0644\u0644\u0647", "religion": "muslim"}}, {"type": "node", "id": 5115939964, "lat": 41.01005, "lon": 28.9631808, "tags": {"addr:city": "Istanbul", "addr:district": "Fatih", "addr:street": "Ordu Caddesi", "name": "T\u00fcrk Vak\u0131f Hat Sanatlar\u0131 M\u00fczesi", "name:ar": "\u0645\u062a\u062d\u0641 \u0627\u0644\u062e\u0637 \u0627\u0644\u062a\u0631\u0643\u064a", "name:en": "The Museum of Turkish Calligraphic Art", "name:ru": "\u041c\u0443\u0437\u0435\u0439 \u0442\u0443\u0440\u0435\u0446\u043a\u043e\u0433\u043e \u043a\u0430\u043b\u043b\u0438\u0433\u0440\u0430\u0444\u0438\u0447\u0435\u0441\u043a\u043e\u0433\u043e \u0438\u0441\u043a\u0443\u0441\u0441\u0442\u0432\u0430", "phone": "02125275851", "tourism": "museum", "website": "http://www.ibb.gov.tr/sites/ks/en-US/1-Places-To-Go/museum/Pages/museum-turkish-calligraphic-art.aspx", "wikidata": "Q6549659"}}, {"type": "node", "id": 5141165023, "lat": 41.0731968, "lon": 29.1156698, "tags": {"addr:street": "\u0130stanbul \u00c7evre Yolu", "internet_access": "wlan", "name": "\u0130zci Kamp\u0131", "name:en": "Scout Camp", "opening_hours": "24/7", "tourism": "camp_site", "website": "http://www.tif.org"}}, {"type": "node", "id": 5175919165, "lat": 41.1542029, "lon": 29.7311137, "tags": {"addr:city": "\u0130stanbul", "addr:district": "\u015eile", "addr:neighbourhood": "Ak\u00e7akese", "name": "Woddyville Camp Alan\u0131", "operator": "Woddyville", "tourism": "camp_site"}}, {"type": "node", "id": 5184094322, "lat": 40.9812405, "lon": 28.8738949, "tags": {"historic": "monument", "name": "Cumhuriyet Meydan\u0131", "name:en": "Republic Square"}}, {"type": "node", "id": 5197966521, "lat": 40.9881481, "lon": 28.6112736, "tags": {"addr:housenumber": "10", "addr:street": "hassan tahseen Caddesi", "name": "G\u00fcrp\u0131nar", "tourism": "caravan_site"}}, {"type": "node", "id": 5209904925, "lat": 41.0282408, "lon": 29.0415462, "tags": {"name": "Abdulmecit Efendi K\u00f6\u015fk\u00fc", "tourism": "museum"}}, {"type": "node", "id": 5243953333, "lat": 41.0258672, "lon": 28.9496503, "tags": {"addr:city": "Istanbul", "addr:district": "Turkey", "addr:street": "Sultan Selim Caddesi", "name": "\u00c7ar\u015famba \u00c7ukurbostan Park\u0131", "name:ar": "\u062d\u062f\u064a\u0642\u0629 \u0634\u0627\u0634\u0645\u0628\u0627 \u0634\u0648\u0643\u0648\u0631\u0628\u0648\u0633\u062a\u0627\u0646", "tourism": "picnic_site"}}, {"type": "node", "id": 5244801843, "lat": 41.0051858, "lon": 28.9743891, "tags": {"addr:city": "Istanbul", "addr:district": "Fatih", "addr:street": "\u015eehit Mehmet Pa\u015fa Yoku\u015fu", "name": "Marmara \u00dcniversitesi Cumhuriyet M\u00fczesi ve Sanat Galerisi", "name:ar": "\u0645\u0631\u0645\u0631\u0629 \u064a\u0648\u0646\u064a\u0641\u064a\u0631\u0633\u062a\u064a \u0645\u0648\u0632\u064a\u0633\u064a \u0641\u064a \u0633\u0627\u0646\u0627\u062a \u062c\u0648\u0632\u0627\u0644", "operator": "Govermental", "tourism": "museum"}}, {"type": "node", "id": 5244801844, "lat": 41.0049596, "lon": 28.9739331, "tags": {"addr:city": "Istanbul", "addr:district": "Fatih", "addr:street": "\u015eehit Mehmet Pa\u015fa Yoku\u015fu", "name": "\u0130stanbul Cumhuriyet E\u011fitim M\u00fczesi", "name:ar": "\u0627\u0633\u062a\u0646\u0628\u0648\u0644 \u062c\u0645\u0647\u0648\u0631\u064a\u0627\u062a \u0627\u064a\u064a\u062a\u0645 \u0645\u0648\u0632\u064a\u0633\u064a", "operator": "Govermental", "tourism": "museum"}}, {"type": "node", "id": 5244807623, "lat": 41.0085619, "lon": 28.9722162, "tags": {"addr:city": "Istanbul", "addr:district": "Fatih", "addr:street": "Boyac\u0131 Ahmet Sokak", "name": "T\u00fcrkiye Gazeteciler Cemiyeti Bas\u0131n M\u00fczesi", "name:ar": "\u062a\u0648\u0631\u0643\u064a\u0627 \u0625\u0627\u0632\u064a\u062a\u064a\u062c\u064a\u0644\u064a\u0631 \u062c\u0645\u0639\u064a\u0627\u062a\u064a \u0628\u0627\u0633\u0646 \u0645\u0648\u0632\u064a\u0633\u064a", "name:en": "Press museum", "tourism": "museum"}}, {"type": "node", "id": 5244807883, "lat": 41.008741, "lon": 28.967614, "tags": {"addr:city": "Istanbul", "addr:district": "Fatih", "addr:street": "Yeni\u00e7eriler Caddesi", "name": "Yahya Kemal Museum", "name:ar": "\u062a\u062d\u062a\u0649 \u0643\u0645\u0627\u0644 \u0645\u064a\u0648\u0632\u064a\u0648\u0645", "operator": "Govermental", "tourism": "museum"}}, {"type": "node", "id": 5257481014, "lat": 41.0283146, "lon": 28.8086005, "tags": {"historic": "bridge", "name": "Papaz K\u00f6pr\u00fcs\u00fc"}}, {"type": "node", "id": 5257521054, "lat": 41.0188844, "lon": 29.1765548, "tags": {"name": "At\u0131l\u0131m Aquarium", "tourism": "aquarium"}}, {"type": "node", "id": 5261640022, "lat": 40.9381274, "lon": 29.1116701, "tags": {"addr:street": "Ba\u011fdat Caddesi", "name": "Maltepe Sahil", "name:en": "Maltepe Seaside", "tourism": "caravan_site"}}, {"type": "node", "id": 5293044482, "lat": 41.0353157, "lon": 28.9184913, "tags": {"historic": "memorial", "memorial": "statue", "name": "Fatih Sultan Mehmet Heykeli"}}, {"type": "node", "id": 5302163727, "lat": 41.0120391, "lon": 28.9580821, "tags": {"name": "Mozaic hotel", "tourism": "viewpoint"}}, {"type": "node", "id": 5310063273, "lat": 41.1081763, "lon": 29.0342498, "tags": {"historic": "memorial", "inscription": "Mynet Cow statue", "memorial": "statue", "name": "Cow Statue"}}, {"type": "node", "id": 5310063275, "lat": 41.1063201, "lon": 29.0280643, "tags": {"historic": "memorial", "memorial": "bust", "name": "Walkway Monuments"}}, {"type": "node", "id": 5310063279, "lat": 41.1047625, "lon": 29.0237373, "tags": {"historic": "memorial", "memorial": "statue", "name": "Dancing Women Statue"}}, {"type": "node", "id": 5329335927, "lat": 40.9919741, "lon": 29.2674016, "tags": {"addr:city": "Istanbul", "addr:district": "Sultanbeyli", "addr:street": "Basra caddesi", "name": "\u00c7o\u00e7uk park\u0131", "name:ar": "\u0645\u0646\u062a\u0632\u0647 \u062a\u0634\u0648\u062a\u0634\u0648\u0643 \u0628\u0627\u0631\u0643", "tourism": "picnic_site"}}, {"type": "node", "id": 5348241331, "lat": 40.9994426, "lon": 28.9334375, "tags": {"name": "Samatya sahil", "natural": "beach"}}, {"type": "node", "id": 5403754921, "lat": 41.1480976, "lon": 29.5657112, "tags": {"name": "Altunsoy \u00c7iftli\u011fi", "shop": "garden_centre", "toilets:wheelchair": "no", "tourism": "camp_site", "wheelchair": "limited", "wheelchair:description": "Koyun \u00c7iftli\u011fi"}}, {"type": "node", "id": 5450459406, "lat": 40.9952479, "lon": 29.0283998, "tags": {"name": "Galleria Mavist", "tourism": "gallery"}}, {"type": "node", "id": 5452420355, "lat": 41.1834828, "lon": 28.1604481, "tags": {"name": "Gaziyi\u011fit Piknik Alan\u0131", "tourism": "picnic_site"}}, {"type": "node", "id": 5478162925, "lat": 41.016305, "lon": 28.9861125, "tags": {"historic": "memorial", "memorial": "statue", "name": "Sarayburnu Atat\u00fcrk An\u0131t\u0131", "name:en": "Sarayburnu Atat\u00fcrk Monument", "name:es": "Estatua de Atat\u00fcrk"}}, {"type": "node", "id": 5484108424, "lat": 41.0041463, "lon": 28.9745769, "tags": {"name": "Sphendon Duvari", "name:en": "Sphendon Wall", "tourism": "information"}}, {"type": "node", "id": 5484713136, "lat": 40.9637619, "lon": 28.8264748, "tags": {"historic": "memorial", "name": "Birinci d\u00fcnya savasi (1914 - 1918)"}}, {"type": "node", "id": 5493801521, "lat": 41.0396552, "lon": 29.0027475, "tags": {"name": "Resim M\u00fczesi", "name:en": "Painting Museum", "name:tr": "Resim M\u00fczesi", "opening_hours": "Tu-Su 09:00-17:00", "operator": "Milli Saraylar", "tourism": "museum", "website": "http://www.millisaraylar.gov.tr/muzeler/resim_muzesi"}}, {"type": "node", "id": 5506396363, "lat": 41.0267866, "lon": 28.9727283, "tags": {"addr:city": "\u0130stanbul", "addr:district": "Beyo\u011flu", "addr:housenumber": "39", "addr:postcode": "34421", "addr:street": "Bereketzade Mahallesi B\u00fcy\u00fck Hendek Cadessi", "name": "500. Y\u0131l Vakf\u0131 T\u00fcrk Musevileri M\u00fczesi", "name:en": "The Jewish Museum of Turkey", "opening_hours": "10:00-16:00; Fr 10:00-13:00; Su 10:00-14:00", "phone": "+90 212 292 63 33", "tourism": "museum", "website": "http://www.muze500.com/", "wheelchair": "no"}}, {"type": "node", "id": 5586475050, "lat": 41.0345631, "lon": 28.9332608, "tags": {"historic": "tomb", "name": "Buharizade Mustafa Efendi (Itri)"}}, {"type": "node", "id": 5609470204, "lat": 41.0078369, "lon": 28.973497, "tags": {"addr:city": "Istanbul", "addr:district": "Fatih", "addr:housenumber": "No.3", "addr:neighbourhood": "Binbirdirek Mahallesi", "addr:postcode": "34122", "addr:street": "Klod Farer Caddesi", "description": "As Turkey & Tours Travel, we mostly provide private Turkey tours, Turkey tour packages, tailor-made Turkey tour options to our customers for them to discover Turkey.", "ele": "56", "email": "info@turkeytoursandtravel.com", "fax": "+90 212 458 0813", "name": "Turkey Tours and Travel", "name:tr": "T\u00fcrkiye Turlar\u0131 ve Seyahat", "opening_hours": "24/7", "operator": "CK Otelcilik Turizm Tic. Ltd. Sti.", "payment:bitcoin": "yes", "payment:cash": "yes", "payment:credit_cards": "yes", "phone": "+90 532 261 5265", "shop": "travel_agency", "source": "local knowledge", "start_date": "2015", "tourism": "information", "website": "https://turkeytoursandtravel.com/", "wheelchair": "yes"}}, {"type": "node", "id": 5640069827, "lat": 41.0299495, "lon": 28.9733012, "tags": {"addr:housenumber": "99", "addr:postcode": "34430", "addr:street": "Me\u015frutiyet Caddesi", "name": "Istanbul Modern Sanat M\u00fczesi", "name:en": "Istanbul Modern Art Museum", "name:zh": "\u4f0a\u65af\u5766\u5821\u73fe\u4ee3\u85dd\u8853\u535a\u7269\u9928", "opening_hours": "Tu-We, Fr-Sa 10:00-18:00; Th 10:00-20:00; Su 11:00-18:00", "phone": "+902123347300", "tourism": "museum", "website": "https://www.istanbulmodern.org/", "wheelchair": "designated"}}, {"type": "node", "id": 5645608922, "lat": 41.0526945, "lon": 29.2379176, "tags": {"addr:housenumber": "5-7", "addr:postcode": "34734", "addr:street": "145.Sokak", "email": "denizpireci@yahoo.com", "name": "Pireci Studio", "opening_hours": "Mo-Fr 10:00-18:00", "operator": "Deniz Pireci", "phone": "05358913639", "tourism": "museum", "website": "http://denizpireci.blogspot.com.tr"}}, {"type": "node", "id": 5679008321, "lat": 41.2457427, "lon": 29.031531, "tags": {"name": "Non Stop beach", "natural": "beach"}}, {"type": "node", "id": 5701074379, "lat": 41.3677187, "lon": 28.2123112, "tags": {"name": "Ayd\u0131nlar Mesire Yeri", "tourism": "picnic_site"}}, {"type": "node", "id": 5721444021, "lat": 41.1770065, "lon": 28.9824644, "tags": {"name": "Atat\u00fcrk arboretumu", "tourism": "information", "website": "https://www.geziyerler.com/ataturk-arboretumu"}}, {"type": "node", "id": 5763646611, "lat": 41.2103444, "lon": 29.398297, "tags": {"addr:city": "\u0130stanbul", "addr:neighbourhood": "Sahilk\u00f6y Mahallesi", "addr:postcode": "34980", "addr:street": "Sahilk\u00f6y K\u00f6y\u00fc", "camp_site": "serviced", "name": "Sahil Kamp \u0130stanbul", "payment:cash": "yes", "payment:credit_cards": "yes", "phone": "+90 530 049 17 90", "tourism": "camp_site", "website": "https://www.sahilkampistanbul.com/"}}, {"type": "node", "id": 5783643936, "lat": 41.0395752, "lon": 28.9415903, "tags": {"historic": "castle", "name": "\u0421\u0442\u0435\u043d\u0430 \u0418\u0440\u0430\u043a\u043b\u0438\u044f"}}, {"type": "node", "id": 5787843345, "lat": 41.0364729, "lon": 28.9393976, "tags": {"historic": "castle", "name": "Kaligaria gate", "name:tr": "E\u011frikap\u0131"}}, {"type": "node", "id": 5790632466, "lat": 41.0061771, "lon": 28.9218944, "tags": {"historic": "castle", "name": "\u0411\u0430\u0448\u043d\u044f \u0412\u0430\u0441\u0438\u043b\u0438\u044f \u0438 \u041a\u043e\u043d\u0441\u0442\u0430\u043d\u0442\u0438\u043d\u0430"}}, {"type": "node", "id": 5866043085, "lat": 41.0446544, "lon": 29.0491701, "tags": {"historic": "monument", "name": "Inan\u00e7 Ev"}}, {"type": "node", "id": 5870510861, "lat": 41.2020612, "lon": 29.4003592, "tags": {"name": "campsite", "tourism": "camp_site"}}, {"type": "node", "id": 5872511485, "lat": 41.0892649, "lon": 29.0566951, "tags": {"name": "Borusan Holding", "name:en": "Borusan contemporary", "name:fr": "Mus\u00e9e d'art moderne Borusan", "name:tr": "Perili K\u00f6\u015fk", "tourism": "museum"}}, {"type": "node", "id": 5906474788, "lat": 41.0474926, "lon": 29.0260037, "tags": {"name": "\u0627\u0644\u0628\u0633\u0641\u0648\u0631", "tourism": "viewpoint"}}, {"type": "node", "id": 5928972413, "lat": 40.9000235, "lon": 29.2270298, "tags": {"historic": "memorial", "name": "Adnan Menderes B\u00fcst\u00fc"}}, {"type": "node", "id": 5952314689, "lat": 41.0117499, "lon": 28.957866, "tags": {"name": "\u0646\u0631\u0643\u064a\u0644\u0629", "natural": "spring"}}, {"type": "node", "id": 5973063786, "lat": 41.0074554, "lon": 28.9724506, "tags": {"addr:housenumber": "4", "addr:postcode": "34122", "addr:street": "Piyer Loti Caddesi", "name": "\u015eerefiye Sarn\u0131c\u0131", "name:de": "Theodosius-Zisterne", "name:en": "Theodosius Cistern", "tourism": "museum", "wikidata": "Q3150393", "wikipedia": "de:Theodosius-Zisterne"}}, {"type": "node", "id": 6010957889, "lat": 41.1716747, "lon": 28.9578235, "tags": {"name": "Kirazl\u0131bent Piknik Alan\u0131", "tourism": "picnic_site"}}, {"type": "node", "id": 6018929785, "lat": 41.1057922, "lon": 29.3010976, "tags": {"historic": "monument", "name": "happy dog"}}, {"type": "node", "id": 6045554486, "lat": 41.0109747, "lon": 28.8900477, "tags": {"name": "\u0635\u064a\u0631\u0641\u0629", "tourism": "viewpoint"}}, {"type": "node", "id": 6055373731, "lat": 41.1785505, "lon": 29.6237358, "tags": {"name": "A\u011flayan Kayalar Burnu", "natural": "cape"}}, {"type": "node", "id": 6060482288, "lat": 41.0053051, "lon": 28.9786689, "tags": {"name": "\u0627\u0644\u0642\u0635\u0637\u0646\u064a\u0637\u0646\u064a\u0629", "tourism": "viewpoint"}}, {"type": "node", "id": 6106808286, "lat": 41.0088558, "lon": 29.0420866, "tags": {"name": "contemporary art museum", "name:en": "Contemporary Art Museum", "toilets:wheelchair": "no", "tourism": "museum", "wheelchair": "limited"}}, {"type": "node", "id": 6171043314, "lat": 41.1325992, "lon": 29.0401268, "tags": {"historic": "monument", "name": "\u015eehit U\u011fur Ta\u015f\u00e7\u0131 An\u0131t\u0131"}}, {"type": "node", "id": 6176125982, "lat": 41.0728753, "lon": 28.9041047, "tags": {"name": "Albino Akvaryum", "tourism": "aquarium"}}, {"type": "node", "id": 6180706492, "lat": 41.04121, "lon": 29.004119, "tags": {"name": "Saray Kolleksiyonlari Muzesi", "name:en": "Palace Collections Museum", "name:tr": "Saray Koleksiyonlar\u0131 M\u00fczesi", "opening_hours": "Tu-Su 09:00-17:00", "tourism": "museum", "website": "http://www.millisaraylar.gov.tr/muzeler/saray-koleksiyonlari-muzesi"}}, {"type": "node", "id": 6185844109, "lat": 41.0265217, "lon": 28.9746896, "tags": {"building": "yes", "name": "GalataArt", "tourism": "gallery", "wheelchair": "no"}}, {"type": "node", "id": 6185937305, "lat": 41.0238431, "lon": 28.9750813, "tags": {"addr:postcode": "34420", "addr:street": "Bankalar Caddesi", "name": "Sabanci Universitesi Kasa Galerisi", "name:en": "Sabanc\u0131 University Vault Gallery", "name:tr": "Sabanc\u0131 \u00dcniversitesi Kasa Galerisi", "phone": "02122924939", "shop": "art", "tourism": "museum", "website": "http://kasagaleri.sabanciuniv.edu", "wheelchair": "no"}}, {"type": "node", "id": 6189668275, "lat": 41.012343, "lon": 28.9440101, "tags": {"addr:city": "Istanbul", "addr:district": "Fatih", "addr:housenumber": "20", "addr:neighbourhood": "Molla G\u00fcrani Mahallesi", "addr:postcode": "34093", "addr:street": "Softa Sinan Sokak", "description": "At The Sultanahmet, we provide a smooth way for you to discover Turkey tours, activities, attractions and many things to do in Turkey. \n\nWe're a group of Turkey enthusiasts who love helping travelers planning to visit Turkey.", "ele": "30", "email": "hello@thesultanahmet.com", "information": "office", "name": "The Sultanahmet", "name:en": "The Sultanahmet", "operator": "Selcuk Vardar", "payment:cash": "yes", "payment:debit_cards": "yes", "payment:mastercard": "yes", "payment:visa": "yes", "phone": "+90 537 725 5464", "source": "local knowledge;gps", "tourism": "information", "website": "https://thesultanahmet.com", "wheelchair": "no"}}, {"type": "node", "id": 6190558860, "lat": 41.0236472, "lon": 29.0296013, "tags": {"historic": "tomb", "name": "Selamiali efendi mezar\u0131"}}, {"type": "node", "id": 6242060770, "lat": 41.5540037, "lon": 28.1608343, "tags": {"ele": "260", "name": "Bey Tepesi", "natural": "peak"}}, {"type": "node", "id": 6271889966, "lat": 41.0166351, "lon": 29.0456912, "tags": {"historic": "memorial", "name": "Atat\u00fcrk B\u00fcst\u00fc", "name:en": "Ataturk Monument"}}, {"type": "node", "id": 6297123385, "lat": 40.9623242, "lon": 29.0690125, "tags": {"name": "Caddebostan Plaj\u0131", "natural": "beach", "surface": "sand"}}, {"type": "node", "id": 6297123386, "lat": 40.9618957, "lon": 29.0694699, "tags": {"name": "Caddebostan Plaj\u0131", "natural": "beach", "surface": "sand"}}, {"type": "node", "id": 6297123387, "lat": 40.9625163, "lon": 29.0687596, "tags": {"name": "Caddebostan Plaj\u0131", "natural": "beach", "surface": "sand"}}, {"type": "node", "id": 6297123388, "lat": 40.9621019, "lon": 29.0692438, "tags": {"name": "Caddebostan Plaj\u0131", "natural": "beach", "surface": "sand"}}, {"type": "node", "id": 6304199185, "lat": 41.0562805, "lon": 29.0577323, "tags": {"historic": "memorial", "name": "mezarl\u0131k"}}, {"type": "node", "id": 6345489656, "lat": 41.1761776, "lon": 29.6118871, "tags": {"historic": "ruins", "name": "Tarihi Hamam"}}, {"type": "node", "id": 6374447985, "lat": 41.0457996, "lon": 29.2198655, "tags": {"name": "F\u0131restanbul Macera Park\u0131", "name:en": "Forestanbul Adventure Park", "tourism": "camp_site"}}, {"type": "node", "id": 6395643585, "lat": 41.0320448, "lon": 28.9897529, "tags": {"historic": "memorial", "name": "Canfeda Tekkesi Haziresi", "name:en": "Ibrahim Pasha", "name:ru": "\u041c\u043e\u0433\u0438\u043b\u0430 \u0432\u0435\u043b\u0438\u043a\u043e\u0433\u043e \u0432\u0438\u0437\u0438\u0440\u044f \u0418\u0431\u0440\u0430\u0433\u0438\u043c\u0430 \u041f\u0430\u0448\u0438"}}, {"type": "node", "id": 6398329629, "lat": 41.0686511, "lon": 28.7086192, "tags": {"historic": "ruins", "historic:civilization": "ancient_roman", "name": "Spradon", "note": "There are ruins around this large area - city wall, bathhouse etc., believed to remains of an ancient settlement Spradon, from which obviously the modern name Ispartakule \"Isparta tower\" was derived.", "source": "http://www.hurriyetdailynews.com/ancient-city-of-spradon-waits-for-final-decision-32801"}}, {"type": "node", "id": 6401620528, "lat": 40.9693576, "lon": 29.1514184, "tags": {"historic": "memorial", "name": "Atat\u00fcrk"}}, {"type": "node", "id": 6405998486, "lat": 41.0042865, "lon": 28.9663963, "tags": {"name": "Istanbul", "name:en": "Mohammad Mirzaie", "tourism": "camp_site"}}, {"type": "node", "id": 6432801437, "lat": 41.013524, "lon": 28.9873569, "tags": {"historic": "memorial", "name": "Turgut Reis"}}, {"type": "node", "id": 6436481809, "lat": 41.2166653, "lon": 29.319873, "tags": {"name": "Erol GEYGEL Kamp Alan\u0131", "tourism": "camp_site"}}, {"type": "node", "id": 6502392074, "lat": 41.1958042, "lon": 28.3302282, "tags": {"historic": "monument", "name": "Atat\u00fcrk An\u0131t\u0131"}}, {"type": "node", "id": 6502395905, "lat": 41.0688232, "lon": 28.1268291, "tags": {"historic": "monument", "name": "Atat\u00fcrk B\u00fcst\u00fc"}}, {"type": "node", "id": 6531889028, "lat": 40.9871819, "lon": 29.0270039, "tags": {"name": "Bahariye Sanat", "tourism": "gallery"}}, {"type": "node", "id": 6559241038, "lat": 41.0561477, "lon": 28.9937295, "tags": {"name": "Eyl\u00fcl Sanat Galerisi", "tourism": "gallery"}}, {"type": "node", "id": 6564345066, "lat": 41.02803, "lon": 28.9751179, "tags": {"name": "Galata Mevlevi House Museum", "opening_hours": "Tu-Su 09:00-18:00", "tourism": "museum"}}, {"type": "node", "id": 6573166973, "lat": 41.2793031, "lon": 28.8095306, "tags": {"historic": "memorial", "memorial": "bust", "name": "Atat\u00fcrk B\u00fcst\u00fc"}}, {"type": "node", "id": 6592942186, "lat": 41.0808002, "lon": 29.7026453, "tags": {"name": "Derea\u011fz\u0131 Restaurant", "tourism": "camp_site"}}, {"type": "node", "id": 6643047286, "lat": 41.3222138, "lon": 28.5289281, "tags": {"name": "Duru\u015fu gol\u00fc \u00f6rencik yakini", "tourism": "camp_site"}}, {"type": "node", "id": 6656862312, "lat": 41.4885962, "lon": 28.2876717, "tags": {"name": "Yal\u0131k\u00f6y Camping", "tourism": "camp_site"}}, {"type": "node", "id": 6656862313, "lat": 41.4893295, "lon": 28.2874367, "tags": {"name": "Free Camping", "tourism": "camp_site"}}, {"type": "node", "id": 6699293985, "lat": 41.2330675, "lon": 29.0990545, "tags": {"name": "giritli \u00e7iftlik kamp alan\u0131", "phone": "05372483373", "tourism": "camp_site"}}, {"type": "node", "id": 6699298986, "lat": 41.1374326, "lon": 29.8330374, "tags": {"name": "sefero\u011fullar\u0131 kamping", "phone": "02167218036", "tourism": "camp_site"}}, {"type": "node", "id": 6699317388, "lat": 41.1590849, "lon": 29.70493, "tags": {"name": "istanbul kamp", "phone": "05368695754", "tourism": "camp_site"}}, {"type": "node", "id": 6707791986, "lat": 41.0366, "lon": 28.8788605, "tags": {"name": "Vulqan ew", "tourism": "viewpoint"}}, {"type": "node", "id": 6709083566, "lat": 41.522652, "lon": 28.2270956, "tags": {"name": "Ku\u015fyuva Tepesi", "natural": "peak"}}, {"type": "node", "id": 6750580277, "lat": 41.0403017, "lon": 28.8121685, "tags": {"name": "AMF", "tourism": "theme_park"}}, {"type": "node", "id": 6754151953, "lat": 41.0477819, "lon": 28.8104059, "tags": {"level": "2", "name": "Playland", "tourism": "theme_park"}}, {"type": "node", "id": 6779466765, "lat": 41.0818259, "lon": 28.1469512, "tags": {"name": "Poyraz Tepesi", "natural": "peak"}}, {"type": "node", "id": 6779502109, "lat": 41.1856952, "lon": 28.2540893, "tags": {"ele": "242", "name": "\u00c7ilingir Tepesi", "natural": "peak"}}, {"type": "node", "id": 6780250766, "lat": 41.3215897, "lon": 28.3689737, "tags": {"name": "Y\u00f6r\u00fckmezar\u0131 Tepesi", "natural": "peak"}}, {"type": "node", "id": 6780270755, "lat": 41.3016724, "lon": 28.3363098, "tags": {"ele": "272", "name": "Acem\u00e7ay\u0131r\u0131 Tepesi", "natural": "peak"}}, {"type": "node", "id": 6780270892, "lat": 41.2364144, "lon": 28.3397913, "tags": {"name": "G\u00f6z Tepesi", "natural": "peak"}}, {"type": "node", "id": 6780271046, "lat": 41.2328321, "lon": 28.2921982, "tags": {"name": "\u00c7ak\u0131ll\u0131 Tepesi", "natural": "peak"}}, {"type": "node", "id": 6780271053, "lat": 41.2551134, "lon": 28.2673073, "tags": {"fixme": "Survey elevation is 232m but, the exact point must be found to enter that.", "name": "Haritatahtas\u0131 Tepe", "natural": "peak"}}, {"type": "node", "id": 6780800699, "lat": 41.4267037, "lon": 28.1981277, "tags": {"ele": "379.9", "name": "K\u0131rm\u0131z\u0131 Tepe", "natural": "peak"}}, {"type": "node", "id": 6780800700, "lat": 41.4279586, "lon": 28.1702918, "tags": {"name": "Telburun Tepesi", "natural": "peak"}}, {"type": "node", "id": 6780800739, "lat": 41.3783865, "lon": 28.2279539, "tags": {"ele": "254", "name": "Ku\u015f Tepesi", "natural": "peak"}}, {"type": "node", "id": 6780836804, "lat": 41.2144011, "lon": 28.0615067, "tags": {"name": "186", "natural": "peak"}}, {"type": "node", "id": 6781104037, "lat": 41.3606408, "lon": 28.3153939, "tags": {"name": "Ferah Tepe", "natural": "peak"}}, {"type": "node", "id": 6781104074, "lat": 41.355809, "lon": 28.3025408, "tags": {"name": "Bostantarla Tepesi", "natural": "peak"}}, {"type": "node", "id": 6781104083, "lat": 41.3473485, "lon": 28.3515099, "tags": {"ele": "379", "name": "K\u00fc\u00e7\u00fck Ku\u015fkaya Tepesi", "natural": "peak"}}, {"type": "node", "id": 6781104084, "lat": 41.4388498, "lon": 28.3986497, "tags": {"ele": "103", "name": "Karaali Tepesi", "natural": "peak"}}, {"type": "node", "id": 6781104197, "lat": 41.4474874, "lon": 28.3727288, "tags": {"ele": "121", "name": "Hisar Tepesi", "natural": "peak"}}, {"type": "node", "id": 6781104404, "lat": 41.4428953, "lon": 28.2692921, "tags": {"ele": "362", "name": "Garipkuyu Tepesi", "natural": "peak"}}, {"type": "node", "id": 6781104998, "lat": 41.4516369, "lon": 28.1584739, "tags": {"name": "G\u00fcrgen Tepe", "natural": "peak"}}, {"type": "node", "id": 6784211348, "lat": 41.2776614, "lon": 28.3983063, "tags": {"ele": "306", "name": "T\u0131nas Tepesi", "natural": "peak"}}, {"type": "node", "id": 6784211351, "lat": 41.2540972, "lon": 28.4779787, "tags": {"ele": "220", "name": "K\u00fc\u00e7\u00fckku\u015fkaya Tepesi", "natural": "peak"}}, {"type": "node", "id": 6784211368, "lat": 41.1629863, "lon": 28.3298993, "tags": {"ele": "196", "name": "Kartal Tepesi", "natural": "peak"}}, {"type": "node", "id": 6790708612, "lat": 40.9834102, "lon": 29.0332241, "tags": {"artwork_type": "sculpture", "historic": "memorial", "inscription": "\u00dcnl\u00fc t\u00fcrk ressami Fikret Mualla 1903-1967", "material": "metal", "name": "Fikret Mualla", "tourism": "artwork"}}, {"type": "node", "id": 6790724255, "lat": 41.0187122, "lon": 29.0131431, "tags": {"historic": "memorial", "inscription": "Z\u00fcbeyde Hanim 1857 - 1923", "material": "metal", "memorial": "bust", "name": "Z\u00fcbeyde Hanim"}}, {"type": "node", "id": 6807300885, "lat": 41.0395922, "lon": 28.998699, "tags": {"name": "Dolmabah\u00e7e sarayi", "tourism": "museum"}}, {"type": "node", "id": 6822252690, "lat": 41.0347326, "lon": 28.8968566, "tags": {"historic": "ruins", "name": "Alt\u0131ntepsi Su Terazisi"}}, {"type": "node", "id": 6824586987, "lat": 41.1387127, "lon": 29.8349584, "tags": {"name": "\u00fccretsiz", "tourism": "camp_site"}}, {"type": "node", "id": 6833801980, "lat": 41.5252384, "lon": 28.2207656, "tags": {"name": "Kaynaklar K\u00f6rfezi", "natural": "bay"}}, {"type": "node", "id": 6833802037, "lat": 41.5713273, "lon": 28.1763375, "tags": {"name": "Kefal A\u011fz\u0131 K\u00f6rfezi", "natural": "bay"}}, {"type": "node", "id": 6833802038, "lat": 41.5551117, "lon": 28.1858539, "tags": {"name": "K\u00fc\u00e7\u00fck Oya K\u00f6rfezi", "natural": "bay"}}, {"type": "node", "id": 6833802039, "lat": 41.5672176, "lon": 28.1861329, "tags": {"name": "Oya Burnu", "natural": "cape"}}, {"type": "node", "id": 6833802110, "lat": 41.5252224, "lon": 28.1222749, "tags": {"name": "399", "natural": "peak"}}, {"type": "node", "id": 6833802114, "lat": 41.5763518, "lon": 28.154869, "tags": {"name": "Ard\u0131\u00e7l\u0131 Tepesi", "natural": "peak"}}, {"type": "node", "id": 6833802115, "lat": 41.5665916, "lon": 28.1389045, "tags": {"name": "Karabay\u0131r Tepesi", "natural": "peak"}}, {"type": "node", "id": 6833802116, "lat": 41.5696097, "lon": 28.1786441, "tags": {"name": "Oya Tepesi", "natural": "peak"}}, {"type": "node", "id": 6861167471, "lat": 41.0120877, "lon": 29.0550874, "tags": {"historic": "monument", "name": "Tarihi S\u00fctun"}}, {"type": "node", "id": 6879045345, "lat": 41.0351745, "lon": 29.0302142, "tags": {"name": "Harmony", "tourism": "gallery"}}, {"type": "node", "id": 6879165718, "lat": 41.03699, "lon": 29.0422754, "tags": {"historic": "memorial", "name": "15 Temmuz \u015eehitleri Zafer An\u0131t\u0131"}}, {"type": "node", "id": 6906376960, "lat": 40.980993, "lon": 28.8733388, "tags": {"historic": "memorial", "name": "Atat\u00fcrk Heykeli"}}, {"type": "node", "id": 6914442986, "lat": 41.0303511, "lon": 28.9369894, "tags": {"historic": "memorial", "name": "Fatih Sultan Mehmet An\u0131t\u0131", "name:en": "Monument to Fatih Sultan Mehmet"}}, {"type": "node", "id": 6915418404, "lat": 41.0257539, "lon": 28.9804735, "tags": {"addr:city": "\u0130stanbul", "addr:district": "Karak\u00f6y", "addr:housenumber": "50", "addr:neighbourhood": "Kemanke\u015f Karamustafa Pa\u015fa", "addr:postcode": "34425", "addr:street": "Mumhane Caddesi", "name": "x-ist", "tourism": "gallery"}}, {"type": "node", "id": 6916379085, "lat": 41.0131228, "lon": 28.957839, "tags": {"historic": "memorial", "name": "\u0130stanbul\u2019un Orta Noktas\u0131", "name:en": "Center of \u0130stanbul"}}, {"type": "node", "id": 6929845185, "lat": 41.0318342, "lon": 28.9751204, "tags": {"addr:housenumber": "65", "addr:street": "Me\u015frutiyet Caddesi", "name": "Pera Muzesi", "name:en": "Pera Museum", "name:fr": "Mus\u00e9e Pera", "tourism": "museum"}}, {"type": "node", "id": 6968819062, "lat": 41.0320737, "lon": 28.9760955, "tags": {"name": "SALT Beyo\u011flu", "tourism": "gallery"}}, {"type": "node", "id": 7014721185, "lat": 41.0604464, "lon": 28.9533268, "tags": {"addr:housenumber": "05364822729", "addr:street": "Mehmet Akif Ersoy", "internet_access": "wlan", "name": "BiRL iK", "name:ar": "Birlik Street 9B \u00a0 34400 \u0643\u0627\u062c\u064a\u0646\u0627 \u0627\u0633\u0637\u0646\u0628\u0648\u0644 \u00a0 \u062a\u0631\u0643\u064a\u0627", "name:en": "Birlik Street 9B \u00a0 34400 Kagyina Istanbul \u00a0 Turkey", "name:tr": "Birlik Sokak 9B  34400 Kagyina \u0130stanbul  T\u00fcrkiye", "phone": "05364822729", "tourism": "caravan_site"}}, {"type": "node", "id": 7036473304, "lat": 41.1782856, "lon": 28.161328, "tags": {"ele": "172", "name": "Alt\u0131ntepe", "natural": "peak"}}, {"type": "node", "id": 7099516987, "lat": 41.0239741, "lon": 28.9737825, "tags": {"historic": "memorial", "memorial": "plaque", "name": "Kamondo Merdivenleri", "name:en": "Kamondo Stairs"}}, {"type": "node", "id": 7107675458, "lat": 41.4132745, "lon": 28.1853018, "tags": {"historic": "monument", "name": "Atat\u00fcrk An\u0131t\u0131"}}]}